{"type": "Feature", "properties": {}, "geometry": {"type": "MultiPolygon", "coordinates": [[[[126.95836784220154, 37.57920083657073], [126.99702589293517, 37.57920083657073], [126.99702589293517, 37.60983146720135], [126.95836784220154, 37.60983146720135], [126.95836784220154, 37.57920083657073]]], [[[126.97625791427201, 37.54466217752001], [127.01489803772235, 37.54466217752001], [127.01489803772235, 37.575292808150635], [126.97625791427201, 37.575292808150635], [126.97625791427201, 37.54466217752001]]], [[[126.96094175773996, 37.51595663824775], [126.99956700490966, 37.51595663824775], [126.99956700490966, 37.546587268878376], [126.96094175773996, 37.546587268878376], [126.96094175773996, 37.51595663824775]]], [[[127.02168141675719, 37.535706739139215], [127.06031689689496, 37.535706739139215], [127.06031689689496, 37.56633736976984], [127.02168141675719, 37.56633736976984], [127.02168141675719, 37.535706739139215]]], [[[127.06716468523521, 37.53133348839133], [127.1057978986311, 37.53133348839133], [127.1057978986311, 37.56196411902196], [127.06716468523521, 37.56196411902196], [127.06716468523521, 37.53133348839133]]], [[[127.03577705139898, 37.56645382333443], [127.07442848222644, 37.56645382333443], [127.07442848222644, 37.59708445396505], [127.03577705139898, 37.59708445396505], [127.03577705139898, 37.56645382333443]]], [[[127.07315670744505, 37.58266608162021], [127.11181655850719, 37.58266608162021], [127.11181655850719, 37.613296712250836], [127.07315670744505, 37.613296712250836], [127.07315670744505, 37.58266608162021]]], [[[126.99933470195089, 37.590542809127605], [127.03799864642687, 37.590542809127605], [127.03799864642687, 37.62117343975823], [126.99933470195089, 37.62117343975823], [126.99933470195089, 37.590542809127605]]], [[[126.99182235240622, 37.628530338499885], [127.03050606086205, 37.628530338499885], [127.03050606086205, 37.65916096913051], [126.99182235240622, 37.65916096913051], [126.99182235240622, 37.628530338499885]]], [[[127.01304777812805, 37.65404882693744], [127.05174478413244, 37.65404882693744], [127.05174478413244, 37.684679457568066], [127.01304777812805, 37.684679457568066], [127.01304777812805, 37.65404882693744]]], [[[127.05571964745397, 37.63654712394045], [127.09440753160266, 37.63654712394045], [127.09440753160266, 37.66717775457108], [127.05571964745397, 37.66717775457108], [127.05571964745397, 37.63654712394045]]], [[[126.91003673989242, 37.604656889648325], [126.94870802323554, 37.604656889648325], [126.94870802323554, 37.63528752027895], [126.91003673989242, 37.63528752027895], [126.91003673989242, 37.604656889648325]]], [[[126.91960893459428, 37.56209777055416], [126.9582581041512, 37.56209777055416], [126.9582581041512, 37.592728401184786], [126.91960893459428, 37.592728401184786], [126.91960893459428, 37.56209777055416]]], [[[126.88895308457754, 37.544027059640825], [126.92759287865721, 37.544027059640825], [126.92759287865721, 37.57465769027145], [126.88895308457754, 37.57465769027145], [126.88895308457754, 37.544027059640825]]], [[[126.83631264294749, 37.50914276822205], [126.87493436202121, 37.50914276822205], [126.87493436202121, 37.539773398852674], [126.83631264294749, 37.539773398852674], [126.83631264294749, 37.50914276822205]]], [[[126.80363244222808, 37.54560505092198], [126.84227305466949, 37.54560505092198], [126.84227305466949, 37.5762356815526], [126.80363244222808, 37.5762356815526], [126.80363244222808, 37.54560505092198]]], [[[126.83781807948718, 37.47896550088629], [126.87642418763635, 37.47896550088629], [126.87642418763635, 37.509596131516915], [126.83781807948718, 37.509596131516915], [126.83781807948718, 37.47896550088629]]], [[[126.88217350942048, 37.44527246956428], [126.92076221546108, 37.44527246956428], [126.92076221546108, 37.475903100194905], [126.88217350942048, 37.475903100194905], [126.88217350942048, 37.44527246956428]]], [[[126.89113371608558, 37.50716243970137], [126.92975441000509, 37.50716243970137], [126.92975441000509, 37.53779307033199], [126.89113371608558, 37.53779307033199], [126.89113371608558, 37.50716243970137]]], [[[126.93262958521979, 37.483701891640976], [126.9712381419956, 37.483701891640976], [126.9712381419956, 37.5143325222716], [126.93262958521979, 37.5143325222716], [126.93262958521979, 37.483701891640976]]], [[[126.92691399657141, 37.45168848458096], [126.96550601418062, 37.45168848458096], [126.96550601418062, 37.48231911521159], [126.92691399657141, 37.48231911521159], [126.92691399657141, 37.45168848458096]]], [[[127.01294326225452, 37.4577305117557], [127.0515383993641, 37.4577305117557], [127.0515383993641, 37.488361142386324], [127.01294326225452, 37.488361142386324], [127.01294326225452, 37.4577305117557]]], [[[127.04302766000724, 37.482070468434756], [127.08163537330249, 37.482070468434756], [127.08163537330249, 37.51270109906538], [127.04302766000724, 37.51270109906538], [127.04302766000724, 37.482070468434756]]], [[[127.0958978804093, 37.48969388625178], [127.13450953575892, 37.48969388625178], [127.13450953575892, 37.520324516882404], [127.0958978804093, 37.520324516882404], [127.0958978804093, 37.48969388625178]]], [[[127.12736293552923, 37.53508739358723], [127.16599809461819, 37.53508739358723], [127.16599809461819, 37.56571802421786], [127.12736293552923, 37.56571802421786], [127.12736293552923, 37.53508739358723]]], [[[129.01404052628703, 35.08965132427833], [129.05148171377056, 35.08965132427833], [129.05148171377056, 35.120281954908954], [129.01404052628703, 35.120281954908954], [129.01404052628703, 35.08965132427833]]], [[[128.9959483643797, 35.08757625898733], [129.03338859872574, 35.08757625898733], [129.03338859872574, 35.11820688961796], [128.9959483643797, 35.11820688961796], [128.9959483643797, 35.08757625898733]]], [[[129.02602375172935, 35.11414132200062], [129.0634761955561, 35.11414132200062], [129.0634761955561, 35.144771952631245], [129.02602375172935, 35.144771952631245], [129.02602375172935, 35.11414132200062]]], [[[129.04508960613197, 35.06356686054095], [129.08251881936462, 35.06356686054095], [129.08251881936462, 35.09419749117158], [129.04508960613197, 35.09419749117158], [129.04508960613197, 35.06356686054095]]], [[[129.02444230215147, 35.14971315871774], [129.06191112012752, 35.14971315871774], [129.06191112012752, 35.18034378934836], [129.02444230215147, 35.18034378934836], [129.02444230215147, 35.14971315871774]]], [[[129.0607421714526, 35.191018683094036], [129.09823003897822, 35.191018683094036], [129.09823003897822, 35.22164931372466], [129.0607421714526, 35.22164931372466], [129.0607421714526, 35.191018683094036]]], [[[129.07524110120903, 35.11144572923736], [129.11269230539324, 35.11144572923736], [129.11269230539324, 35.142076359867986], [129.07524110120903, 35.142076359867986], [129.07524110120903, 35.11144572923736]]], [[[129.00527200547407, 35.21445888100506], [129.04277070059067, 35.21445888100506], [129.04277070059067, 35.24508951163568], [129.00527200547407, 35.24508951163568], [129.00527200547407, 35.21445888100506]]], [[[129.135134781912, 35.17839020904606], [129.17261682123305, 35.17839020904606], [129.17261682123305, 35.20902083967668], [129.135134781912, 35.20902083967668], [129.135134781912, 35.17839020904606]]], [[[128.95317478684893, 35.07382472673059], [128.99060870718552, 35.07382472673059], [128.99060870718552, 35.10445535736122], [128.95317478684893, 35.10445535736122], [128.95317478684893, 35.07382472673059]]], [[[129.07278377497695, 35.243465361619954], [129.11029588624106, 35.243465361619954], [129.11029588624106, 35.27409599225058], [129.07278377497695, 35.27409599225058], [129.07278377497695, 35.243465361619954]]], [[[128.87264749587163, 35.12065277655679], [128.91010293485058, 35.12065277655679], [128.91010293485058, 35.151283407187414], [128.87264749587163, 35.151283407187414], [128.87264749587163, 35.12065277655679]]], [[[129.06440965320581, 35.16722453690722], [129.10188654244996, 35.16722453690722], [129.10188654244996, 35.197855167537845], [129.06440965320581, 35.197855167537845], [129.06440965320581, 35.16722453690722]]], [[[129.09276715037296, 35.14609365497166], [129.1302343009331, 35.14609365497166], [129.1302343009331, 35.17672428560228], [129.09276715037296, 35.17672428560228], [129.09276715037296, 35.14609365497166]]], [[[128.96803949930288, 35.14248482002214], [129.0055049876585, 35.14248482002214], [129.0055049876585, 35.173115450652766], [128.96803949930288, 35.173115450652766], [128.96803949930288, 35.14248482002214]]], [[[129.1827424757619, 35.28145440290204], [129.2202721868899, 35.28145440290204], [129.2202721868899, 35.31208503353267], [129.1827424757619, 35.31208503353267], [129.1827424757619, 35.28145440290204]]], [[[128.57507292819483, 35.851009871522066], [128.6128705031878, 35.851009871522066], [128.6128705031878, 35.88164050215269], [128.57507292819483, 35.88164050215269], [128.57507292819483, 35.851009871522066]]], [[[128.6669737876582, 35.91902815454678], [128.70480385829512, 35.91902815454678], [128.70480385829512, 35.949658785177405], [128.6669737876582, 35.949658785177405], [128.6669737876582, 35.91902815454678]]], [[[128.53079642062562, 35.85955842633872], [128.56859807368528, 35.85955842633872], [128.56859807368528, 35.89018905696935], [128.53079642062562, 35.89018905696935], [128.53079642062562, 35.85955842633872]]], [[[128.56669675936945, 35.819894109217955], [128.60447950519324, 35.819894109217955], [128.60447950519324, 35.85052473984858], [128.56669675936945, 35.85052473984858], [128.56669675936945, 35.819894109217955]]], [[[128.55833212929326, 35.91336779492211], [128.59615949153556, 35.91336779492211], [128.59615949153556, 35.943998425552735], [128.55833212929326, 35.943998425552735], [128.55833212929326, 35.91336779492211]]], [[[128.64288865469584, 35.81893329457989], [128.6806709429765, 35.81893329457989], [128.6806709429765, 35.84956392521052], [128.64288865469584, 35.84956392521052], [128.64288865469584, 35.81893329457989]]], [[[128.5097007750241, 35.81210138449273], [128.54747981055243, 35.81210138449273], [128.54747981055243, 35.84273201512335], [128.5097007750241, 35.84273201512335], [128.5097007750241, 35.81210138449273]]], [[[128.4800158588868, 35.743956701778735], [128.51776250991813, 35.743956701778735], [128.51776250991813, 35.77458733240936], [128.4800158588868, 35.77458733240936], [128.4800158588868, 35.743956701778735]]], [[[126.46364772545598, 37.45275481989958], [126.5022402935466, 37.45275481989958], [126.5022402935466, 37.48338545053021], [126.46364772545598, 37.48338545053021], [126.46364772545598, 37.45275481989958]]], [[[126.62119968911405, 37.46769616239695], [126.65979997353195, 37.46769616239695], [126.65979997353195, 37.49832679302757], [126.62119968911405, 37.49832679302757], [126.62119968911405, 37.46769616239695]]], [[[126.64612012112596, 37.43763869754784], [126.68470488843411, 37.43763869754784], [126.68470488843411, 37.468269328178465], [126.64612012112596, 37.468269328178465], [126.64612012112596, 37.43763869754784]]], [[[126.63050324242792, 37.37515807557369], [126.66905582804608, 37.37515807557369], [126.66905582804608, 37.40578870620431], [126.63050324242792, 37.40578870620431], [126.63050324242792, 37.37515807557369]]], [[[126.70747612108372, 37.41569211845145], [126.74604957309248, 37.41569211845145], [126.74604957309248, 37.44632274908208], [126.70747612108372, 37.44632274908208], [126.70747612108372, 37.41569211845145]]], [[[126.70203788378343, 37.48137177192034], [126.74064523585857, 37.48137177192034], [126.74064523585857, 37.51200240255096], [126.70203788378343, 37.51200240255096], [126.70203788378343, 37.48137177192034]]], [[[126.71556461625194, 37.54180827730685], [126.75420325975757, 37.54180827730685], [126.75420325975757, 37.572438907937475], [126.71556461625194, 37.572438907937475], [126.71556461625194, 37.54180827730685]]], [[[126.63276767135332, 37.54429496267843], [126.67140760436561, 37.54429496267843], [126.67140760436561, 37.574925593309054], [126.63276767135332, 37.574925593309054], [126.63276767135332, 37.54429496267843]]], [[[126.38405074144549, 37.69483030500413], [126.42276903340334, 37.69483030500413], [126.42276903340334, 37.72546093563476], [126.38405074144549, 37.72546093563476], [126.38405074144549, 37.69483030500413]]], [[[125.62745020153187, 37.52511008093417], [125.6660801900598, 37.52511008093417], [125.6660801900598, 37.555740711564795], [125.62745020153187, 37.555740711564795], [125.62745020153187, 37.52511008093417]]], [[[126.92998024103464, 35.10219197573498], [126.96742719088054, 35.10219197573498], [126.96742719088054, 35.13282260636561], [126.92998024103464, 35.13282260636561], [126.92998024103464, 35.10219197573498]]], [[[126.83159379680731, 35.119953197649664], [126.86904891394639, 35.119953197649664], [126.86904891394639, 35.15058382828029], [126.83159379680731, 35.15058382828029], [126.83159379680731, 35.119953197649664]]], [[[126.83812486890879, 35.078548701876834], [126.87556095777298, 35.078548701876834], [126.87556095777298, 35.10917933250746], [126.83812486890879, 35.10917933250746], [126.83812486890879, 35.078548701876834]]], [[[126.90773934910715, 35.17721905781864], [126.94522084811084, 35.17721905781864], [126.94522084811084, 35.207849688449265], [126.90773934910715, 35.207849688449265], [126.90773934910715, 35.17721905781864]]], [[[126.73410598316774, 35.14983963869996], [126.77157485941537, 35.14983963869996], [126.77157485941537, 35.180470269330584], [126.73410598316774, 35.180470269330584], [126.73410598316774, 35.14983963869996]]], [[[127.45606526026138, 36.30869581606681], [127.49408361280193, 36.30869581606681], [127.49408361280193, 36.339326446697434], [127.45606526026138, 36.339326446697434], [127.45606526026138, 36.30869581606681]]], [[[127.39215591873938, 36.2653056613752], [127.4301531260281, 36.2653056613752], [127.4301531260281, 36.29593629200583], [127.39215591873938, 36.29593629200583], [127.39215591873938, 36.2653056613752]]], [[[127.3259164171664, 36.2651018451997], [127.36391352523664, 36.2651018451997], [127.36391352523664, 36.29573247583033], [127.3259164171664, 36.29573247583033], [127.3259164171664, 36.2651018451997]]], [[[127.31384251224067, 36.361451895587784], [127.35188663544766, 36.361451895587784], [127.35188663544766, 36.39208252621841], [127.31384251224067, 36.39208252621841], [127.31384251224067, 36.361451895587784]]], [[[127.42127175558346, 36.3963097738006], [127.45933294330646, 36.3963097738006], [127.45933294330646, 36.42694040443123], [127.42127175558346, 36.42694040443123], [127.42127175558346, 36.3963097738006]]], [[[129.29091692281386, 35.55552910452623], [129.32857459222274, 35.55552910452623], [129.32857459222274, 35.586159735156855], [129.29091692281386, 35.586159735156855], [129.29091692281386, 35.55552910452623]]], [[[129.30964396993014, 35.50027262651948], [129.34727570201485, 35.50027262651948], [129.34727570201485, 35.53090325715011], [129.30964396993014, 35.53090325715011], [129.30964396993014, 35.50027262651948]]], [[[129.40734480534144, 35.51063545564725], [129.4449813963368, 35.51063545564725], [129.4449813963368, 35.54126608627787], [129.40734480534144, 35.54126608627787], [129.40734480534144, 35.51063545564725]]], [[[129.36128723374043, 35.595160288368625], [129.39896354959956, 35.595160288368625], [129.39896354959956, 35.62579091899925], [129.36128723374043, 35.62579091899925], [129.36128723374043, 35.595160288368625]]], [[[129.16884277501674, 35.53055687832385], [129.2064887137298, 35.53055687832385], [129.2064887137298, 35.561187508954475], [129.16884277501674, 35.561187508954475], [129.16884277501674, 35.53055687832385]]], [[[127.2397612873203, 36.54548873039084], [127.2778958378926, 36.54548873039084], [127.2778958378926, 36.57611936102146], [127.2397612873203, 36.57611936102146], [127.2397612873203, 36.54548873039084]]], [[[126.98412543902131, 37.298540991268275], [127.0226386973828, 37.298540991268275], [127.0226386973828, 37.3291716218989], [126.98412543902131, 37.3291716218989], [126.98412543902131, 37.298540991268275]]], [[[126.96059761688042, 37.2454723125479], [126.99908372260228, 37.2454723125479], [126.99908372260228, 37.27610294317853], [126.96059761688042, 37.27610294317853], [126.96059761688042, 37.2454723125479]]], [[[126.99843045247268, 37.26208992235767], [127.03692505294093, 37.26208992235767], [127.03692505294093, 37.29272055298829], [126.99843045247268, 37.29272055298829], [126.99843045247268, 37.26208992235767]]], [[[127.03757307550728, 37.25980688798858], [127.07606650849843, 37.25980688798858], [127.07606650849843, 37.29043751861921], [127.03757307550728, 37.29043751861921], [127.03757307550728, 37.25980688798858]]], [[[127.08498299284462, 37.420204331947616], [127.1235587702731, 37.420204331947616], [127.1235587702731, 37.45083496257824], [127.08498299284462, 37.45083496257824], [127.08498299284462, 37.420204331947616]]], [[[127.14417603623225, 37.41810556286952], [127.18275073197198, 37.41810556286952], [127.18275073197198, 37.448736193500146], [127.14417603623225, 37.448736193500146], [127.14417603623225, 37.41810556286952]]], [[[127.08673907277237, 37.36439475254631], [127.1252861246072, 37.36439475254631], [127.1252861246072, 37.395025383176936], [127.08673907277237, 37.395025383176936], [127.08673907277237, 37.36439475254631]]], [[[127.04932002633959, 37.72101739242057], [127.08805200938752, 37.72101739242057], [127.08805200938752, 37.751648023051196], [127.04932002633959, 37.751648023051196], [127.04932002633959, 37.72101739242057]]], [[[126.8918485277941, 37.388635015419766], [126.93040804651606, 37.388635015419766], [126.93040804651606, 37.41926564605039], [126.8918485277941, 37.41926564605039], [126.8918485277941, 37.388635015419766]]], [[[126.93627363563799, 37.38568085467828], [126.97483163421965, 37.38568085467828], [126.97483163421965, 37.4163114853089], [126.93627363563799, 37.4163114853089], [126.93627363563799, 37.38568085467828]]], [[[126.84549802938581, 37.43021432223111], [126.8840789674302, 37.43021432223111], [126.8840789674302, 37.460844952861734], [126.84549802938581, 37.460844952861734], [126.84549802938581, 37.43021432223111]]], [[[126.97556594077189, 37.00056819641958], [127.01392766085108, 37.00056819641958], [127.01392766085108, 37.031198827050204], [126.97556594077189, 37.031198827050204], [126.97556594077189, 37.00056819641958]]], [[[127.05862327823256, 37.90117555600748], [127.0974499345797, 37.90117555600748], [127.0974499345797, 37.931806186638106], [127.05862327823256, 37.931806186638106], [127.05862327823256, 37.90117555600748]]], [[[126.85173683070391, 37.29987580383437], [126.89025077294357, 37.29987580383437], [126.89025077294357, 37.33050643446499], [126.85173683070391, 37.33050643446499], [126.85173683070391, 37.29987580383437]]], [[[126.67362242515864, 37.2670792503174], [126.71211957748278, 37.2670792503174], [126.71211957748278, 37.29770988094803], [126.67362242515864, 37.29770988094803], [126.67362242515864, 37.2670792503174]]], [[[126.85923554719965, 37.640898133999826], [126.897925698348, 37.640898133999826], [126.897925698348, 37.67152876463045], [126.85923554719965, 37.67152876463045], [126.85923554719965, 37.640898133999826]]], [[[126.7775265980189, 37.6636725704537], [126.81622862327312, 37.6636725704537], [126.81622862327312, 37.694303201084324], [126.7775265980189, 37.694303201084324], [126.7775265980189, 37.6636725704537]]], [[[126.70778313683566, 37.6639980791452], [126.74648533190033, 37.6639980791452], [126.74648533190033, 37.69462870977583], [126.70778313683566, 37.69462870977583], [126.70778313683566, 37.6639980791452]]], [[[126.9840182510271, 37.41834228062398], [127.02259306876363, 37.41834228062398], [127.02259306876363, 37.44897291125461], [126.9840182510271, 37.44897291125461], [126.9840182510271, 37.41834228062398]]], [[[127.11156656215336, 37.5842431045307], [127.15022723264208, 37.5842431045307], [127.15022723264208, 37.614873735161325], [127.11156656215336, 37.614873735161325], [127.11156656215336, 37.5842431045307]]], [[[127.2239313659528, 37.64754074514204], [127.26262497903282, 37.64754074514204], [127.26262497903282, 37.67817137577266], [127.2239313659528, 37.67817137577266], [127.2239313659528, 37.64754074514204]]], [[[127.03184191643494, 37.148127449600445], [127.07027840058656, 37.148127449600445], [127.07027840058656, 37.17875808023107], [127.03184191643494, 37.17875808023107], [127.03184191643494, 37.148127449600445]]], [[[126.76414751860554, 37.37114222726714], [126.80269803919725, 37.37114222726714], [126.80269803919725, 37.40177285789777], [126.76414751860554, 37.40177285789777], [126.76414751860554, 37.37114222726714]]], [[[126.90195230624177, 37.32790400519594], [126.94048061889832, 37.32790400519594], [126.94048061889832, 37.358534635826565], [126.90195230624177, 37.358534635826565], [126.90195230624177, 37.32790400519594]]], [[[126.97038721340864, 37.34715356449099], [127.00892540711688, 37.34715356449099], [127.00892540711688, 37.37778419512161], [126.97038721340864, 37.37778419512161], [126.97038721340864, 37.34715356449099]]], [[[127.18693943404116, 37.50721693769589], [127.22556015617124, 37.50721693769589], [127.22556015617124, 37.53784756832651], [127.18693943404116, 37.53784756832651], [127.18693943404116, 37.50721693769589]]], [[[127.23400901813264, 37.18827070548015], [127.27246593635908, 37.18827070548015], [127.27246593635908, 37.218901336110775], [127.23400901813264, 37.218901336110775], [127.23400901813264, 37.18827070548015]]], [[[127.10207623023707, 37.252080957785566], [127.14056571339167, 37.252080957785566], [127.14056571339167, 37.28271158841619], [127.10207623023707, 37.28271158841619], [127.10207623023707, 37.252080957785566]]], [[[127.05277248413223, 37.31816280342196], [127.09129580008924, 37.31816280342196], [127.09129580008924, 37.34879343405259], [127.05277248413223, 37.34879343405259], [127.05277248413223, 37.31816280342196]]], [[[126.79040566297083, 37.84042092709299], [126.82920029814368, 37.84042092709299], [126.82920029814368, 37.87105155772362], [126.79040566297083, 37.87105155772362], [126.79040566297083, 37.84042092709299]]], [[[127.4619225965427, 37.19449103232686], [127.50038268472895, 37.19449103232686], [127.50038268472895, 37.225121662957484], [127.4619225965427, 37.225121662957484], [127.4619225965427, 37.19449103232686]]], [[[127.28349297137633, 37.019477939374774], [127.32186424202105, 37.019477939374774], [127.32186424202105, 37.0501085700054], [127.28349297137633, 37.0501085700054], [127.28349297137633, 37.019477939374774]]], [[[126.60624227577121, 37.66294665479729], [126.64494392234165, 37.66294665479729], [126.64494392234165, 37.693577285427914], [126.60624227577121, 37.693577285427914], [126.60624227577121, 37.66294665479729]]], [[[126.85458179474249, 37.15051710445951], [126.89301949416138, 37.15051710445951], [126.89301949416138, 37.181147735090136], [126.85458179474249, 37.181147735090136], [126.85458179474249, 37.15051710445951]]], [[[127.28175806326577, 37.38761694496063], [127.32031705808798, 37.38761694496063], [127.32031705808798, 37.41824757559125], [127.28175806326577, 37.41824757559125], [127.28175806326577, 37.38761694496063]]], [[[126.98182230661466, 37.79331623851154], [127.02059218122209, 37.79331623851154], [127.02059218122209, 37.82394686914216], [126.98182230661466, 37.82394686914216], [126.98182230661466, 37.79331623851154]]], [[[127.23103564977782, 37.95472741860182], [127.26989061114526, 37.95472741860182], [127.26989061114526, 37.985358049232445], [127.23103564977782, 37.985358049232445], [127.23103564977782, 37.95472741860182]]], [[[127.59663057368688, 37.28698059065939], [127.63513791108026, 37.28698059065939], [127.63513791108026, 37.317611221290015], [127.59663057368688, 37.317611221290015], [127.59663057368688, 37.28698059065939]]], [[[127.00514941511236, 38.08290684122319], [127.04407243234365, 38.08290684122319], [127.04407243234365, 38.11353747185382], [127.00514941511236, 38.11353747185382], [127.00514941511236, 38.08290684122319]]], [[[127.43097729985891, 37.803242542349544], [127.46975238741695, 37.803242542349544], [127.46975238741695, 37.83387317298017], [127.43097729985891, 37.83387317298017], [127.43097729985891, 37.803242542349544]]], [[[127.55921968786747, 37.50295687140915], [127.59783820502919, 37.50295687140915], [127.59783820502919, 37.53358750203977], [127.55921968786747, 37.53358750203977], [127.55921968786747, 37.50295687140915]]], [[[127.72063601093595, 37.874696309590774], [127.75944869933954, 37.874696309590774], [127.75944869933954, 37.9053269402214], [127.72063601093595, 37.9053269402214], [127.72063601093595, 37.874696309590774]]], [[[127.91181880003539, 37.29289674710541], [127.95032916712309, 37.29289674710541], [127.95032916712309, 37.323527377736035], [127.91181880003539, 37.323527377736035], [127.91181880003539, 37.29289674710541]]], [[[128.8125904318827, 37.69400348273351], [128.85130829185204, 37.69400348273351], [128.85130829185204, 37.72463411336413], [128.8125904318827, 37.72463411336413], [128.8125904318827, 37.69400348273351]]], [[[129.03661402592948, 37.4918008244022], [129.07522677103523, 37.4918008244022], [129.07522677103523, 37.52243145503282], [129.03661402592948, 37.52243145503282], [129.03661402592948, 37.4918008244022]]], [[[128.9608460057515, 37.15750982641556], [128.99928726216902, 37.15750982641556], [128.99928726216902, 37.18814045704619], [128.9608460057515, 37.18814045704619], [128.9608460057515, 37.15750982641556]]], [[[128.50052218321406, 38.16109180550061], [128.53948692520407, 38.16109180550061], [128.53948692520407, 38.191722436131236], [128.50052218321406, 38.191722436131236], [128.50052218321406, 38.16109180550061]]], [[[129.10271054845165, 37.26215345964368], [129.14120518141291, 37.26215345964368], [129.14120518141291, 37.2927840902743], [129.10271054845165, 37.2927840902743], [129.10271054845165, 37.26215345964368]]], [[[128.05458195359742, 37.7297685282735], [128.09331851586282, 37.7297685282735], [128.09331851586282, 37.76039915890413], [128.05458195359742, 37.76039915890413], [128.05458195359742, 37.7297685282735]]], [[[128.05785336592183, 37.494451212979214], [128.09646748203014, 37.494451212979214], [128.09646748203014, 37.52508184360984], [128.05785336592183, 37.52508184360984], [128.05785336592183, 37.494451212979214]]], [[[128.4824651797727, 37.18835678000774], [128.52092214185717, 37.18835678000774], [128.52092214185717, 37.21898741063836], [128.4824651797727, 37.21898741063836], [128.4824651797727, 37.18835678000774]]], [[[128.46292976166959, 37.541098971945104], [128.5015680373838, 37.541098971945104], [128.5015680373838, 37.57172960257573], [128.46292976166959, 37.57172960257573], [128.46292976166959, 37.541098971945104]]], [[[128.7195901299186, 37.363319515162054], [128.7581366291, 37.363319515162054], [128.7581366291, 37.39395014579268], [128.7195901299186, 37.39395014579268], [128.7195901299186, 37.363319515162054]]], [[[127.33696404583803, 38.21897770273528], [127.37595978414102, 38.21897770273528], [127.37595978414102, 38.249608333365906], [127.33696404583803, 38.249608333365906], [127.33696404583803, 38.21897770273528]]], [[[127.66823427814926, 38.145543471262336], [127.70719070959747, 38.145543471262336], [127.70719070959747, 38.17617410189296], [127.66823427814926, 38.17617410189296], [127.66823427814926, 38.145543471262336]]], [[[127.97981745611527, 38.16557797293138], [128.01878459714206, 38.16557797293138], [128.01878459714206, 38.196208603562006], [127.97981745611527, 38.196208603562006], [127.97981745611527, 38.16557797293138]]], [[[128.24330210403485, 38.05255493133859], [128.28220896702226, 38.05255493133859], [128.28220896702226, 38.083185561969216], [128.24330210403485, 38.083185561969216], [128.24330210403485, 38.05255493133859]]], [[[128.38124596892223, 38.361096846223276], [128.4203181871341, 38.361096846223276], [128.4203181871341, 38.3917274768539], [128.38124596892223, 38.3917274768539], [128.38124596892223, 38.361096846223276]]], [[[128.57648067362192, 37.98935373342697], [128.61535397691398, 37.98935373342697], [128.61535397691398, 38.01998436405759], [128.57648067362192, 38.01998436405759], [128.57648067362192, 37.98935373342697]]], [[[127.87654968544014, 36.999861175686924], [127.91491104860428, 36.999861175686924], [127.91491104860428, 37.03049180631755], [127.87654968544014, 37.03049180631755], [127.87654968544014, 36.999861175686924]]], [[[128.12183314884973, 37.04436819916749], [128.16021700421018, 37.04436819916749], [128.16021700421018, 37.07499882979811], [128.12183314884973, 37.07499882979811], [128.12183314884973, 37.04436819916749]]], [[[127.5657875583514, 36.57679331158209], [127.60393757258585, 36.57679331158209], [127.60393757258585, 36.60742394221271], [127.5657875583514, 36.60742394221271], [127.5657875583514, 36.57679331158209]]], [[[127.41976487686203, 36.53215496456267], [127.45789284815702, 36.53215496456267], [127.45789284815702, 36.5627855951933], [127.41976487686203, 36.5627855951933], [127.41976487686203, 36.53215496456267]]], [[[127.350264115623, 36.63132520667241], [127.38844112442472, 36.63132520667241], [127.38844112442472, 36.66195583730303], [127.350264115623, 36.66195583730303], [127.350264115623, 36.63132520667241]]], [[[127.47177312588443, 36.70502703826026], [127.50998673464235, 36.70502703826026], [127.50998673464235, 36.73565766889089], [127.47177312588443, 36.73565766889089], [127.47177312588443, 36.70502703826026]]], [[[127.71036604534316, 36.47455088447239], [127.74846564283806, 36.47455088447239], [127.74846564283806, 36.50518151510302], [127.71036604534316, 36.50518151510302], [127.71036604534316, 36.47455088447239]]], [[[127.63743050480474, 36.305179183308304], [127.67544714190211, 36.305179183308304], [127.67544714190211, 36.33580981393893], [127.63743050480474, 36.33580981393893], [127.63743050480474, 36.305179183308304]]], [[[127.79534934027758, 36.14420035699898], [127.83328776874104, 36.14420035699898], [127.83328776874104, 36.174830987629605], [127.79534934027758, 36.174830987629605], [127.79534934027758, 36.14420035699898]]], [[[127.42135905075972, 36.855440146338594], [127.45964776898799, 36.855440146338594], [127.45964776898799, 36.88607077696922], [127.42135905075972, 36.88607077696922], [127.42135905075972, 36.855440146338594]]], [[[127.81048204687892, 36.754126837781776], [127.8487201124637, 36.754126837781776], [127.8487201124637, 36.7847574684124], [127.81048204687892, 36.7847574684124], [127.81048204687892, 36.754126837781776]]], [[[127.59525361803375, 36.96044229479121], [127.6335951016693, 36.96044229479121], [127.6335951016693, 36.99107292542183], [127.59525361803375, 36.99107292542183], [127.59525361803375, 36.96044229479121]]], [[[128.36899409026768, 36.979027482173734], [128.40734494186057, 36.979027482173734], [128.40734494186057, 37.00965811280436], [128.36899409026768, 37.00965811280436], [128.36899409026768, 36.979027482173734]]], [[[127.58517295428129, 36.770964460752936], [127.62341942044003, 36.770964460752936], [127.62341942044003, 36.80159509138356], [127.58517295428129, 36.80159509138356], [127.58517295428129, 36.770964460752936]]], [[[127.20173296000145, 36.74891030223094], [127.2399684243873, 36.74891030223094], [127.2399684243873, 36.779540932861565], [127.20173296000145, 36.779540932861565], [127.20173296000145, 36.74891030223094]]], [[[127.14285491359296, 36.877610857295224], [127.18115475018102, 36.877610857295224], [127.18115475018102, 36.90824148792585], [127.14285491359296, 36.90824148792585], [127.14285491359296, 36.877610857295224]]], [[[127.05632037168239, 36.464365439858796], [127.09441496057347, 36.464365439858796], [127.09441496057347, 36.49499607048942], [127.05632037168239, 36.49499607048942], [127.05632037168239, 36.464365439858796]]], [[[126.5740877327324, 36.33100519600386], [126.61211697492239, 36.33100519600386], [126.61211697492239, 36.36163582663448], [126.5740877327324, 36.36163582663448], [126.5740877327324, 36.33100519600386]]], [[[126.96160670746353, 36.79181892542589], [126.99986358796598, 36.79181892542589], [126.99986358796598, 36.82244955605652], [126.96160670746353, 36.82244955605652], [126.96160670746353, 36.79181892542589]]], [[[126.44281594772272, 36.774851199499516], [126.48106435403463, 36.774851199499516], [126.48106435403463, 36.80548183013014], [126.44281594772272, 36.80548183013014], [126.44281594772272, 36.774851199499516]]], [[[127.1388604185938, 36.17554938468283], [127.17681402868985, 36.17554938468283], [127.17681402868985, 36.20618001531346], [127.1388604185938, 36.20618001531346], [127.1388604185938, 36.17554938468283]]], [[[127.21559483143659, 36.276060552380905], [127.25359727566425, 36.276060552380905], [127.25359727566425, 36.30669118301153], [127.21559483143659, 36.30669118301153], [127.21559483143659, 36.276060552380905]]], [[[126.63283434065859, 36.88877907983857], [126.67113978260211, 36.88877907983857], [126.67113978260211, 36.919409710469196], [126.63283434065859, 36.919409710469196], [126.63283434065859, 36.88877907983857]]], [[[127.45949836785304, 36.103841693161485], [127.49741728609861, 36.103841693161485], [127.49741728609861, 36.13447232379211], [127.45949836785304, 36.13447232379211], [127.45949836785304, 36.103841693161485]]], [[[126.8380187678397, 36.231069651234655], [126.87599932291094, 36.231069651234655], [126.87599932291094, 36.26170028186528], [126.8380187678397, 36.26170028186528], [126.8380187678397, 36.231069651234655]]], [[[126.68548901037843, 36.091525955564144], [126.7234019826806, 36.091525955564144], [126.7234019826806, 36.12215658619477], [126.68548901037843, 36.12215658619477], [126.68548901037843, 36.091525955564144]]], [[[126.83401179942511, 36.41528723826168], [126.872082289843, 36.41528723826168], [126.872082289843, 36.44591786889231], [126.83401179942511, 36.44591786889231], [126.83401179942511, 36.41528723826168]]], [[[126.60414958993215, 36.554347266163774], [126.64228851396754, 36.554347266163774], [126.64228851396754, 36.5849778967944], [126.60414958993215, 36.5849778967944], [126.60414958993215, 36.554347266163774]]], [[[126.76509990558539, 36.65523687620073], [126.80328877419136, 36.65523687620073], [126.80328877419136, 36.68586750683136], [126.76509990558539, 36.68586750683136], [126.76509990558539, 36.65523687620073]]], [[[126.26517250236444, 36.68203561572436], [126.30337467938477, 36.68203561572436], [126.30337467938477, 36.712666246354985], [126.26517250236444, 36.712666246354985], [126.26517250236444, 36.68203561572436]]], [[[126.37251093753429, 34.78869141745238], [126.40981490029819, 34.78869141745238], [126.40981490029819, 34.819322048083], [126.37251093753429, 34.819322048083], [126.37251093753429, 34.78869141745238]]], [[[127.63720848635153, 34.68840769690598], [127.67446717510542, 34.68840769690598], [127.67446717510542, 34.71903832753661], [127.63720848635153, 34.71903832753661], [127.63720848635153, 34.68840769690598]]], [[[127.37060002776798, 34.97944684027058], [127.40799073000784, 34.97944684027058], [127.40799073000784, 35.01007747090121], [127.37060002776798, 35.01007747090121], [127.37060002776798, 34.97944684027058]]], [[[126.70107738662801, 34.97293210052472], [126.73846511302153, 34.97293210052472], [126.73846511302153, 35.00356273115535], [126.70107738662801, 35.00356273115535], [126.70107738662801, 34.97293210052472]]], [[[127.63729658984771, 35.00371337573199], [127.67469838514369, 35.00371337573199], [127.67469838514369, 35.034344006362616], [127.63729658984771, 35.034344006362616], [127.63729658984771, 35.00371337573199]]], [[[126.97660130678143, 35.275993943067846], [127.01412848611277, 35.275993943067846], [127.01412848611277, 35.30662457369847], [126.97660130678143, 35.30662457369847], [126.97660130678143, 35.275993943067846]]], [[[127.24507552406524, 35.201514049987416], [127.28256823810418, 35.201514049987416], [127.28256823810418, 35.23214468061804], [127.24507552406524, 35.23214468061804], [127.24507552406524, 35.201514049987416]]], [[[127.48446138079618, 35.22166980063534], [127.52196340933074, 35.22166980063534], [127.52196340933074, 35.252300431265965], [127.48446138079618, 35.252300431265965], [127.48446138079618, 35.22166980063534]]], [[[127.29717138050152, 34.58284501420264], [127.33438265358178, 34.58284501420264], [127.33438265358178, 34.613475644833265], [127.29717138050152, 34.613475644833265], [127.29717138050152, 34.58284501420264]]], [[[127.14279533270869, 34.799326542759594], [127.18010410995822, 34.799326542759594], [127.18010410995822, 34.82995717339022], [127.14279533270869, 34.82995717339022], [127.14279533270869, 34.799326542759594]]], [[[127.01476210672595, 34.99311162653419], [127.05215905396818, 34.99311162653419], [127.05215905396818, 35.02374225716481], [127.01476210672595, 35.02374225716481], [127.01476210672595, 34.99311162653419]]], [[[126.90288229719809, 34.661883522847106], [126.94012904880927, 34.661883522847106], [126.94012904880927, 34.69251415347773], [126.90288229719809, 34.69251415347773], [126.90288229719809, 34.661883522847106]]], [[[126.75360600259388, 34.60460405282667], [126.7908270289871, 34.60460405282667], [126.7908270289871, 34.6352346834573], [126.75360600259388, 34.6352346834573], [126.75360600259388, 34.60460405282667]]], [[[126.49644579892278, 34.538369976997004], [126.5336371689995, 34.538369976997004], [126.5336371689995, 34.56900060762763], [126.49644579892278, 34.56900060762763], [126.49644579892278, 34.538369976997004]]], [[[126.60966067758454, 34.78383881287534], [126.64696244443036, 34.78383881287534], [126.64696244443036, 34.81446944350596], [126.60966067758454, 34.81446944350596], [126.60966067758454, 34.78383881287534]]], [[[126.4039735893627, 34.94159863867712], [126.44134701641222, 34.94159863867712], [126.44134701641222, 34.972229269307746], [126.4039735893627, 34.972229269307746], [126.4039735893627, 34.94159863867712]]], [[[126.5164976682155, 35.09738681250262], [126.55394240969298, 35.09738681250262], [126.55394240969298, 35.128017443133245], [126.5164976682155, 35.128017443133245], [126.5164976682155, 35.09738681250262]]], [[[126.43278922378026, 35.26095663523565], [126.47030943444035, 35.26095663523565], [126.47030943444035, 35.291587265866276], [126.43278922378026, 35.291587265866276], [126.43278922378026, 35.26095663523565]]], [[[126.74990132555668, 35.314373588856725], [126.78744631446112, 35.314373588856725], [126.78744631446112, 35.34500421948735], [126.74990132555668, 35.34500421948735], [126.74990132555668, 35.314373588856725]]], [[[126.76803269202972, 34.279447438690966], [126.80510905588002, 34.279447438690966], [126.80510905588002, 34.31007806932159], [126.76803269202972, 34.31007806932159], [126.76803269202972, 34.279447438690966]]], [[[126.19650822258957, 34.42339025800793], [126.23364834027699, 34.42339025800793], [126.23364834027699, 34.45402088863855], [126.19650822258957, 34.45402088863855], [126.19650822258957, 34.42339025800793]]], [[[126.02304338229727, 34.78837363021898], [126.06034720123886, 34.78837363021898], [126.06034720123886, 34.8190042608496], [126.02304338229727, 34.8190042608496], [126.02304338229727, 34.78837363021898]]], [[[129.41920778169708, 35.94226043504378], [129.4570489765547, 35.94226043504378], [129.4570489765547, 35.9728910656744], [129.41920778169708, 35.9728910656744], [129.41920778169708, 35.94226043504378]]], [[[129.21546882730595, 36.149908385029555], [129.2534100182895, 36.149908385029555], [129.2534100182895, 36.18053901566018], [129.21546882730595, 36.18053901566018], [129.21546882730595, 36.149908385029555]]], [[[129.21699985036796, 35.81123928814155], [129.2547784755201, 35.81123928814155], [129.2547784755201, 35.841869918772176], [129.21699985036796, 35.841869918772176], [129.21699985036796, 35.81123928814155]]], [[[128.05916218966382, 36.0452264951479], [128.09705284126977, 36.0452264951479], [128.09705284126977, 36.075857125778526], [128.05916218966382, 36.075857125778526], [128.05916218966382, 36.0452264951479]]], [[[128.7609180452387, 36.564889779346935], [128.79906217661355, 36.564889779346935], [128.79906217661355, 36.59552040997756], [128.7609180452387, 36.59552040997756], [128.7609180452387, 36.564889779346935]]], [[[128.33683784676302, 36.192226909271106], [128.37479954299576, 36.192226909271106], [128.37479954299576, 36.22285753990173], [128.33683784676302, 36.22285753990173], [128.33683784676302, 36.192226909271106]]], [[[128.578637456143, 36.85512657110695], [128.6169260172043, 36.85512657110695], [128.6169260172043, 36.885757201737576], [128.578637456143, 36.885757201737576], [128.578637456143, 36.85512657110695]]], [[[128.92341109017133, 36.000326892186315], [128.96128014463602, 36.000326892186315], [128.96128014463602, 36.03095752281694], [128.92341109017133, 36.03095752281694], [128.92341109017133, 36.000326892186315]]], [[[128.0478216062436, 36.41416367045683], [128.08589154564902, 36.41416367045683], [128.08589154564902, 36.444794301087455], [128.0478216062436, 36.444794301087455], [128.0478216062436, 36.41416367045683]]], [[[128.12954446294802, 36.67519670601903], [128.16774324204923, 36.67519670601903], [128.16774324204923, 36.705827336649655], [128.12954446294802, 36.705827336649655], [128.12954446294802, 36.67519670601903]]], [[[128.7906904193286, 35.8182983829847], [128.82847240527417, 35.8182983829847], [128.82847240527417, 35.848929013615326], [128.7906904193286, 35.848929013615326], [128.7906904193286, 35.8182983829847]]], [[[128.62952147717667, 36.15499675421085], [128.66746513144008, 36.15499675421085], [128.66746513144008, 36.185627384841474], [128.62952147717667, 36.185627384841474], [128.62952147717667, 36.15499675421085]]], [[[128.59631595007684, 36.346676684937336], [128.63435284901053, 36.346676684937336], [128.63435284901053, 36.37730731556796], [128.59631595007684, 36.37730731556796], [128.59631595007684, 36.346676684937336]]], [[[129.03832729414253, 36.34167752729025], [129.07636174995415, 36.34167752729025], [129.07636174995415, 36.37230815792088], [129.03832729414253, 36.37230815792088], [129.03832729414253, 36.34167752729025]]], [[[129.12598219632693, 36.68169114911942], [129.16418420217119, 36.68169114911942], [129.16418420217119, 36.71232177975005], [129.12598219632693, 36.71232177975005], [129.12598219632693, 36.68169114911942]]], [[[129.29902293453904, 36.46709490165822], [129.33711886537196, 36.46709490165822], [129.33711886537196, 36.49772553228885], [129.29902293453904, 36.49772553228885], [129.29902293453904, 36.46709490165822]]], [[[128.7665300358477, 35.657333330810424], [128.80423567770018, 35.657333330810424], [128.80423567770018, 35.68796396144105], [128.7665300358477, 35.68796396144105], [128.7665300358477, 35.657333330810424]]], [[[128.28680414951083, 35.72090305227725], [128.32453986936565, 35.72090305227725], [128.32453986936565, 35.751533682907876], [128.28680414951083, 35.751533682907876], [128.28680414951083, 35.72090305227725]]], [[[128.21524358668435, 35.89172883658448], [128.25306060199537, 35.89172883658448], [128.25306060199537, 35.9223594672151], [128.21524358668435, 35.9223594672151], [128.21524358668435, 35.89172883658448]]], [[[128.44398550395664, 36.000181718837666], [128.48185448866923, 36.000181718837666], [128.48185448866923, 36.03081234946829], [128.44398550395664, 36.03081234946829], [128.44398550395664, 36.000181718837666]]], [[[128.40329163052482, 36.63887736023054], [128.4414723835591, 36.63887736023054], [128.4414723835591, 36.66950799086116], [128.40329163052482, 36.66950799086116], [128.40329163052482, 36.63887736023054]]], [[[128.89382401365677, 36.919186552322614], [128.93214473287694, 36.919186552322614], [128.93214473287694, 36.94981718295324], [128.89382401365677, 36.94981718295324], [128.89382401365677, 36.919186552322614]]], [[[129.29406881920653, 36.88884363674329], [129.3323742935603, 36.88884363674329], [129.3323742935603, 36.919474267373914], [129.29406881920653, 36.919474267373914], [129.29406881920653, 36.88884363674329]]], [[[130.842114968636, 37.487301394613596], [130.88072538667262, 37.487301394613596], [130.88072538667262, 37.51793202524422], [130.842114968636, 37.51793202524422], [130.842114968636, 37.487301394613596]]], [[[128.1110275101813, 35.190014378753496], [128.14851491407447, 35.190014378753496], [128.14851491407447, 35.22064500938412], [128.1110275101813, 35.22064500938412], [128.1110275101813, 35.190014378753496]]], [[[128.35548889030733, 34.81913588216085], [128.39280664192094, 34.81913588216085], [128.39280664192094, 34.849766512791476], [128.35548889030733, 34.849766512791476], [128.35548889030733, 34.81913588216085]]], [[[128.0187304582729, 35.034884249154054], [128.05614652234453, 35.034884249154054], [128.05614652234453, 35.06551487978468], [128.0187304582729, 35.06551487978468], [128.0187304582729, 35.034884249154054]]], [[[128.8264612030893, 35.256528194041174], [128.86397936248284, 35.256528194041174], [128.86397936248284, 35.2871588246718], [128.8264612030893, 35.2871588246718], [128.8264612030893, 35.256528194041174]]], [[[128.77056425724263, 35.48293226277328], [128.80818786435654, 35.48293226277328], [128.80818786435654, 35.51356289340391], [128.77056425724263, 35.51356289340391], [128.77056425724263, 35.48293226277328]]], [[[128.60459706586983, 34.854153433359734], [128.64193070321772, 34.854153433359734], [128.64193070321772, 34.88478406399036], [128.60459706586983, 34.88478406399036], [128.60459706586983, 34.854153433359734]]], [[[129.02261156114315, 35.38661837926402], [129.06019016597503, 35.38661837926402], [129.06019016597503, 35.41724900989465], [129.02261156114315, 35.41724900989465], [129.02261156114315, 35.38661837926402]]], [[[128.6298858246321, 35.294317030350356], [128.6674215023435, 35.294317030350356], [128.6674215023435, 35.32494766098098], [128.6298858246321, 35.32494766098098], [128.6298858246321, 35.294317030350356]]], [[[128.65316384885838, 35.18117745493897], [128.69064717421716, 35.18117745493897], [128.69064717421716, 35.211808085569594], [128.65316384885838, 35.211808085569594], [128.65316384885838, 35.18117745493897]]], [[[128.46995714452956, 35.11917887108001], [128.50741190545418, 35.11917887108001], [128.50741190545418, 35.149809501710635], [128.46995714452956, 35.149809501710635], [128.46995714452956, 35.11917887108001]]], [[[128.51758660345243, 35.217037584517186], [128.55508649049935, 35.217037584517186], [128.55508649049935, 35.24766821514781], [128.51758660345243, 35.24766821514781], [128.51758660345243, 35.217037584517186]]], [[[128.71899843796842, 35.114130081855805], [128.75645087662576, 35.114130081855805], [128.75645087662576, 35.14476071248643], [128.71899843796842, 35.14476071248643], [128.71899843796842, 35.114130081855805]]], [[[128.25848414651367, 35.376900286455744], [128.29605822247774, 35.376900286455744], [128.29605822247774, 35.40753091708637], [128.25848414651367, 35.40753091708637], [128.25848414651367, 35.376900286455744]]], [[[128.41266363561394, 35.27596240346284], [128.4501908003236, 35.27596240346284], [128.4501908003236, 35.30659303409347], [128.41266363561394, 35.30659303409347], [128.41266363561394, 35.27596240346284]]], [[[128.47409413053236, 35.49307621263744], [128.51172248983352, 35.49307621263744], [128.51172248983352, 35.523706843268066], [128.47409413053236, 35.523706843268066], [128.47409413053236, 35.49307621263744]]], [[[128.2727239462899, 35.00042990637631], [128.31012423982315, 35.00042990637631], [128.31012423982315, 35.03106053700694], [128.2727239462899, 35.03106053700694], [128.2727239462899, 35.00042990637631]]], [[[127.92305524329423, 34.80369542722399], [127.96036599905581, 34.80369542722399], [127.96036599905581, 34.83432605785462], [127.92305524329423, 34.83432605785462], [127.92305524329423, 34.80369542722399]]], [[[127.76067646900951, 35.122306299133676], [127.79813266873249, 35.122306299133676], [127.79813266873249, 35.1529369297643], [127.76067646900951, 35.1529369297643], [127.76067646900951, 35.122306299133676]]], [[[127.86539898485361, 35.35327257784364], [127.90296205878906, 35.35327257784364], [127.90296205878906, 35.383903208474266], [127.86539898485361, 35.383903208474266], [127.86539898485361, 35.35327257784364]]], [[[127.70298333861817, 35.53617563884051], [127.74063191548154, 35.53617563884051], [127.74063191548154, 35.56680626947114], [127.70298333861817, 35.56680626947114], [127.70298333861817, 35.53617563884051]]], [[[127.88534544625767, 35.71715164048036], [127.92307938851036, 35.71715164048036], [127.92307938851036, 35.747782271110985], [127.88534544625767, 35.747782271110985], [127.88534544625767, 35.71715164048036]]], [[[128.1228433553172, 35.56131152436676], [128.1605037430788, 35.56131152436676], [128.1605037430788, 35.59194215499738], [128.1228433553172, 35.59194215499738], [128.1228433553172, 35.56131152436676]]], [[[126.5123965198836, 33.42656345916771], [126.54910429606562, 33.42656345916771], [126.54910429606562, 33.457194089798335], [126.5123965198836, 33.457194089798335], [126.5123965198836, 33.42656345916771]]], [[[126.56290634483364, 33.30899016086429], [126.59956451816313, 33.30899016086429], [126.59956451816313, 33.339620791494916], [126.56290634483364, 33.339620791494916], [126.56290634483364, 33.30899016086429]]], [[[126.75929067540449, 37.48447003319779], [126.79789962934944, 37.48447003319779], [126.79789962934944, 37.51510066382841], [126.75929067540449, 37.51510066382841], [126.75929067540449, 37.48447003319779]]], [[[126.77796966388395, 37.45963271799976], [126.81656578329638, 37.45963271799976], [126.81656578329638, 37.490263348630386], [126.77796966388395, 37.490263348630386], [126.77796966388395, 37.45963271799976]]], [[[126.77457108539002, 37.51202700958956], [126.81319429772529, 37.51202700958956], [126.81319429772529, 37.542657640220185], [126.77457108539002, 37.542657640220185], [126.77457108539002, 37.51202700958956]]], [[[127.10204371286689, 35.7760413710434], [127.13980559796899, 35.7760413710434], [127.13980559796899, 35.80667200167402], [127.10204371286689, 35.80667200167402], [127.10204371286689, 35.7760413710434]]], [[[127.0931766516271, 35.84262719107865], [127.13097022935462, 35.84262719107865], [127.13097022935462, 35.873257821709274], [127.0931766516271, 35.873257821709274], [127.0931766516271, 35.84262719107865]]], [[[126.70808126496941, 35.94137918960826], [126.74592203763085, 35.94137918960826], [126.74592203763085, 35.97200982023889], [126.70808126496941, 35.97200982023889], [126.70808126496941, 35.94137918960826]]], [[[126.97027589696957, 36.00798927095252], [127.0081486337241, 36.00798927095252], [127.0081486337241, 36.03861990158315], [126.97027589696957, 36.03861990158315], [126.97027589696957, 36.00798927095252]]], [[[126.88592475005166, 35.587640175979516], [126.9235975248969, 35.587640175979516], [126.9235975248969, 35.61827080661014], [126.88592475005166, 35.61827080661014], [126.88592475005166, 35.587640175979516]]], [[[127.42275520372304, 35.407018410014686], [127.46034332253622, 35.407018410014686], [127.46034332253622, 35.43764904064531], [127.42275520372304, 35.43764904064531], [127.42275520372304, 35.407018410014686]]], [[[126.88835301687517, 35.78841610483437], [126.92612078405692, 35.78841610483437], [126.92612078405692, 35.819046735464994], [126.88835301687517, 35.819046735464994], [126.88835301687517, 35.78841610483437]]], [[[127.19596012297124, 35.90332380570495], [127.23378268118294, 35.90332380570495], [127.23378268118294, 35.933954436335576], [127.19596012297124, 35.933954436335576], [127.19596012297124, 35.90332380570495]]], [[[127.41113843195599, 35.81326541349115], [127.4489180216146, 35.81326541349115], [127.4489180216146, 35.84389604412178], [127.41113843195599, 35.84389604412178], [127.41113843195599, 35.81326541349115]]], [[[127.69401768349881, 35.923814654133345], [127.73185004499264, 35.923814654133345], [127.73185004499264, 35.95444528476397], [127.69401768349881, 35.95444528476397], [127.69401768349881, 35.923814654133345]]], [[[127.52522221527879, 35.64166244634976], [127.56292045694771, 35.64166244634976], [127.56292045694771, 35.67229307698039], [127.52522221527879, 35.67229307698039], [127.52522221527879, 35.64166244634976]]], [[[127.21706944785785, 35.58229798572458], [127.25473970801136, 35.58229798572458], [127.25473970801136, 35.612928616355205], [127.21706944785785, 35.612928616355205], [127.21706944785785, 35.58229798572458]]], [[[127.07105658614935, 35.41827757213573], [127.10864996001322, 35.41827757213573], [127.10864996001322, 35.448908202766354], [127.07105658614935, 35.448908202766354], [127.07105658614935, 35.41827757213573]]], [[[126.59714184931026, 35.43310672538776], [126.63474214892484, 35.43310672538776], [126.63474214892484, 35.463737356018385], [126.59714184931026, 35.463737356018385], [126.59714184931026, 35.43310672538776]]], [[[126.62363628315325, 35.661627229220265], [126.66134395369147, 35.661627229220265], [126.66134395369147, 35.69225785985089], [126.62363628315325, 35.69225785985089], [126.62363628315325, 35.661627229220265]]], [[[127.04301752500427, 37.482072438776704], [127.08162523931821, 37.482072438776704], [127.08162523931821, 37.51270306940733], [127.04301752500427, 37.51270306940733], [127.04301752500427, 37.482072438776704]]], [[[126.79045790836841, 37.84047480142766], [126.82925257189342, 37.84047480142766], [126.82925257189342, 37.871105432058286], [126.79045790836841, 37.871105432058286], [126.79045790836841, 37.84047480142766]]], [[[127.09232051993345, 36.80412771828469], [127.13058355226656, 36.80412771828469], [127.13058355226656, 36.834758348915315], [127.09232051993345, 36.834758348915315], [127.09232051993345, 36.80412771828469]]], [[[126.26499574307105, 36.68225974817882], [126.30319803147127, 36.68225974817882], [126.30319803147127, 36.71289037880945], [126.26499574307105, 36.71289037880945], [126.26499574307105, 36.68225974817882]]], [[[126.90287581111549, 34.66203180872759], [126.94012262941892, 34.66203180872759], [126.94012262941892, 34.692662439358216], [126.90287581111549, 34.692662439358216], [126.90287581111549, 34.66203180872759]]], [[[128.33674866646018, 36.192258544320055], [128.37471037803758, 36.192258544320055], [128.37471037803758, 36.22288917495068], [128.33674866646018, 36.22288917495068], [128.33674866646018, 36.192258544320055]]], [[[128.25853013584273, 35.376927245890045], [128.29610422436755, 35.376927245890045], [128.29610422436755, 35.40755787652067], [128.25853013584273, 35.40755787652067], [128.25853013584273, 35.376927245890045]]], [[[127.72072318040965, 37.87475272957691], [127.7595358985556, 37.87475272957691], [127.7595358985556, 37.90538336020754], [127.72072318040965, 37.90538336020754], [127.72072318040965, 37.87475272957691]]], [[[128.64662678764606, 37.36188343688469], [128.68517254875397, 37.36188343688469], [128.68517254875397, 37.392514067515314], [128.64662678764606, 37.392514067515314], [128.64662678764606, 37.36188343688469]]], [[[127.33696785517824, 38.21896536575619], [127.37596358686562, 38.21896536575619], [127.37596358686562, 38.249595996386816], [127.33696785517824, 38.249595996386816], [127.33696785517824, 38.21896536575619]]], [[[126.83339981484087, 35.73870656338469], [126.87114397535913, 35.73870656338469], [126.87114397535913, 35.769337194015314], [126.83339981484087, 35.769337194015314], [126.83339981484087, 35.73870656338469]]], [[[126.96094235460264, 37.515957052405234], [126.99956760198684, 37.515957052405234], [126.99956760198684, 37.54658768303586], [126.96094235460264, 37.54658768303586], [126.96094235460264, 37.515957052405234]]], [[[128.94945518722898, 35.157541984684684], [128.986927612771, 35.157541984684684], [128.986927612771, 35.18817261531531], [128.94945518722898, 35.18817261531531], [128.94945518722898, 35.157541984684684]]], [[[126.63050544892853, 37.37516259754295], [126.66905803687222, 37.37516259754295], [126.66905803687222, 37.40579322817358], [126.63050544892853, 37.40579322817358], [126.63050544892853, 37.37516259754295]]], [[[126.7200344707723, 37.382612383484684], [126.75859089062769, 37.382612383484684], [126.75859089062769, 37.41324301411531], [126.7200344707723, 37.41324301411531], [126.7200344707723, 37.382612383484684]]], [[[126.70369234403958, 37.479102797384684], [126.74229852316043, 37.479102797384684], [126.74229852316043, 37.50973342801531], [126.70369234403958, 37.50973342801531], [126.70369234403958, 37.479102797384684]]], [[[129.16874377383888, 35.530635403705595], [129.20638974941656, 35.530635403705595], [129.20638974941656, 35.56126603433622], [129.16874377383888, 35.56126603433622], [129.16874377383888, 35.530635403705595]]], [[[126.8454963532318, 37.43021937993399], [126.8840772938843, 37.43021937993399], [126.8840772938843, 37.46085001056461], [126.8454963532318, 37.46085001056461], [126.8454963532318, 37.43021937993399]]], [[[126.79045790836841, 37.84047480142766], [126.82925257189342, 37.84047480142766], [126.82925257189342, 37.871105432058286], [126.79045790836841, 37.871105432058286], [126.79045790836841, 37.84047480142766]]], [[[127.28622504423485, 37.018319152784684], [127.32459572936516, 37.018319152784684], [127.32459572936516, 37.04894978341531], [127.28622504423485, 37.04894978341531], [127.28622504423485, 37.018319152784684]]], [[[127.38825451881394, 36.71788488598469], [127.42647452638607, 36.71788488598469], [127.42647452638607, 36.74851551661531], [127.38825451881394, 36.74851551661531], [127.38825451881394, 36.71788488598469]]], [[[126.63273728317291, 36.88879683018004], [126.67104273402784, 36.88879683018004], [126.67104273402784, 36.91942746081067], [126.63273728317291, 36.91942746081067], [126.63273728317291, 36.88879683018004]]], [[[127.48156726209311, 36.08483818688469], [127.5194770071069, 36.08483818688469], [127.5194770071069, 36.115468817515314], [127.48156726209311, 36.115468817515314], [127.48156726209311, 36.08483818688469]]], [[[129.2860837708696, 36.077939156751285], [129.3239901877643, 36.077939156751285], [129.3239901877643, 36.10856978738191], [129.2860837708696, 36.10856978738191], [129.2860837708696, 36.077939156751285]]], [[[127.81056100768508, 35.42575065458469], [127.8481578711149, 35.42575065458469], [127.8481578711149, 35.456381285215315], [127.81056100768508, 35.456381285215315], [127.81056100768508, 35.42575065458469]]], [[[127.72072318040965, 37.87475272957691], [127.7595358985556, 37.87475272957691], [127.7595358985556, 37.90538336020754], [127.72072318040965, 37.90538336020754], [127.72072318040965, 37.87475272957691]]], [[[127.72072318040965, 37.87475272957691], [127.7595358985556, 37.87475272957691], [127.7595358985556, 37.90538336020754], [127.72072318040965, 37.90538336020754], [127.72072318040965, 37.87475272957691]]], [[[126.69274315909425, 35.97247568468469], [126.73059884090574, 35.97247568468469], [126.73059884090574, 36.003106315315314], [126.69274315909425, 36.003106315315314], [126.69274315909425, 35.97247568468469]]], [[[127.19606771497956, 35.90347513186227], [127.23389034555274, 35.90347513186227], [127.23389034555274, 35.9341057624929], [127.19606771497956, 35.9341057624929], [127.19606771497956, 35.90347513186227]]], [[[126.38400592198289, 37.69485201563405], [126.4227242252841, 37.69485201563405], [126.4227242252841, 37.72548264626467], [126.38400592198289, 37.72548264626467], [126.38400592198289, 37.69485201563405]]], [[[127.42127967946162, 36.396321969768145], [127.45934087316026, 36.396321969768145], [127.45934087316026, 36.42695260039877], [127.42127967946162, 36.42695260039877], [127.42127967946162, 36.396321969768145]]], [[[126.98867964143592, 37.26519646763109], [127.02717583071264, 37.26519646763109], [127.02717583071264, 37.29582709826172], [126.98867964143592, 37.29582709826172], [126.98867964143592, 37.26519646763109]]], [[[126.85005952559567, 37.46123868468469], [126.88865647440434, 37.46123868468469], [126.88865647440434, 37.49186931531531], [126.85005952559567, 37.49186931531531], [126.85005952559567, 37.46123868468469]]], [[[127.20288817356091, 37.20634130753404], [127.24135430350331, 37.20634130753404], [127.24135430350331, 37.236971938164665], [127.20288817356091, 37.236971938164665], [127.20288817356091, 37.20634130753404]]], [[[127.5965662972459, 37.2870289297453], [127.63507365939039, 37.2870289297453], [127.63507365939039, 37.31765956037592], [127.5965662972459, 37.31765956037592], [127.5965662972459, 37.2870289297453]]], [[[127.05624738188067, 36.46445595092821], [127.0943420152687, 36.46445595092821], [127.0943420152687, 36.49508658155884], [127.05624738188067, 36.49508658155884], [127.05624738188067, 36.46445595092821]]], [[[127.48442947269405, 35.22170179878355], [127.52193151602313, 35.22170179878355], [127.52193151602313, 35.252332429414174], [127.48442947269405, 35.252332429414174], [127.48442947269405, 35.22170179878355]]], [[[127.09714185680636, 35.8127762988874], [127.13492121362049, 35.8127762988874], [127.13492121362049, 35.843406929518025], [127.09714185680636, 35.843406929518025], [127.09714185680636, 35.8127762988874]]], [[[126.97026769676646, 36.00802860101513], [127.00814045242535, 36.00802860101513], [127.00814045242535, 36.03865923164575], [126.97026769676646, 36.03865923164575], [126.97026769676646, 36.00802860101513]]], [[[126.99514601872667, 37.266566703884685], [127.03364290887333, 37.266566703884685], [127.03364290887333, 37.29719733451531], [126.99514601872667, 37.29719733451531], [126.99514601872667, 37.266566703884685]]], [[[126.90107128188727, 35.132176022784684], [126.93853202371274, 35.132176022784684], [126.93853202371274, 35.16280665341531], [126.90107128188727, 35.16280665341531], [126.90107128188727, 35.132176022784684]]], [[[126.8971389961852, 35.13492568468469], [126.93460100381479, 35.13492568468469], [126.93460100381479, 35.165556315315314], [126.8971389961852, 35.165556315315314], [126.8971389961852, 35.13492568468469]]], [[[127.87644682560855, 36.99990413211893], [127.91480821045741, 36.99990413211893], [127.91480821045741, 37.030534762749554], [127.87644682560855, 37.030534762749554], [127.87644682560855, 36.99990413211893]]], [[[126.70108090286045, 34.972936673112066], [126.73846863134234, 34.972936673112066], [126.73846863134234, 35.00356730374269], [126.70108090286045, 35.00356730374269], [126.70108090286045, 34.972936673112066]]], [[[129.0927669539826, 35.14609466391892], [129.13023410500747, 35.14609466391892], [129.13023410500747, 35.17672529454955], [129.0927669539826, 35.17672529454955], [129.0927669539826, 35.14609466391892]]], [[[129.30963290566459, 35.5002737885962], [129.34726463829404, 35.5002737885962], [129.34726463829404, 35.53090441922683], [129.30963290566459, 35.53090441922683], [129.30963290566459, 35.5002737885962]]], [[[127.24503472404581, 35.201536362012995], [127.2825274483906, 35.201536362012995], [127.2825274483906, 35.23216699264362], [127.24503472404581, 35.23216699264362], [127.24503472404581, 35.201536362012995]]], [[[126.75925734056996, 35.29149096418469], [126.79679170703004, 35.29149096418469], [126.79679170703004, 35.322121594815314], [126.75925734056996, 35.322121594815314], [126.75925734056996, 35.29149096418469]]], [[[127.09714185680636, 35.8127762988874], [127.13492121362049, 35.8127762988874], [127.13492121362049, 35.843406929518025], [127.09714185680636, 35.843406929518025], [127.09714185680636, 35.8127762988874]]], [[[126.88593609449984, 35.587652413053696], [126.92360887510614, 35.587652413053696], [126.92360887510614, 35.61828304368432], [126.88593609449984, 35.61828304368432], [126.88593609449984, 35.587652413053696]]], [[[127.28293284412172, 35.61625406578469], [127.32061909947828, 35.61625406578469], [127.32061909947828, 35.64688469641531], [127.28293284412172, 35.64688469641531], [127.28293284412172, 35.61625406578469]]], [[[129.1827507379163, 35.28147681003604], [129.220280459435, 35.28147681003604], [129.220280459435, 35.312107440666665], [129.1827507379163, 35.312107440666665], [129.1827507379163, 35.28147681003604]]], [[[127.45609072075004, 36.308741161924395], [127.49410909541263, 36.308741161924395], [127.49410909541263, 36.33937179255502], [127.45609072075004, 36.33937179255502], [127.45609072075004, 36.308741161924395]]], [[[127.2511320252995, 36.483638137684686], [127.28923609350049, 36.483638137684686], [127.28923609350049, 36.51426876831531], [127.2511320252995, 36.51426876831531], [127.2511320252995, 36.483638137684686]]], [[[126.8166494271747, 37.649709806214304], [126.85534417095178, 37.649709806214304], [126.85534417095178, 37.68034043684493], [126.8166494271747, 37.68034043684493], [126.8166494271747, 37.649709806214304]]], [[[126.79045790836841, 37.84047480142766], [126.82925257189342, 37.84047480142766], [126.82925257189342, 37.871105432058286], [126.79045790836841, 37.871105432058286], [126.79045790836841, 37.84047480142766]]], [[[127.43097787439514, 37.80337919819362], [127.469753033738, 37.80337919819362], [127.469753033738, 37.83400982882424], [127.43097787439514, 37.83400982882424], [127.43097787439514, 37.80337919819362]]], [[[127.43097787439514, 37.80337919819362], [127.469753033738, 37.80337919819362], [127.469753033738, 37.83400982882424], [127.43097787439514, 37.83400982882424], [127.43097787439514, 37.80337919819362]]], [[[127.55915035786805, 37.50293816686738], [127.59776886534951, 37.50293816686738], [127.59776886534951, 37.533568797498006], [127.55915035786805, 37.533568797498006], [127.55915035786805, 37.50293816686738]]], [[[127.55915035786805, 37.50293816686738], [127.59776886534951, 37.50293816686738], [127.59776886534951, 37.533568797498006], [127.55915035786805, 37.533568797498006], [127.55915035786805, 37.50293816686738]]], [[[126.57403382022812, 36.33108954143942], [126.61206310361158, 36.33108954143942], [126.61206310361158, 36.361720172070044], [126.57403382022812, 36.361720172070044], [126.57403382022812, 36.33108954143942]]], [[[127.63736733706985, 34.68867387232618], [127.67462614569463, 34.68867387232618], [127.67462614569463, 34.7193045029568], [127.63736733706985, 34.7193045029568], [127.63736733706985, 34.68867387232618]]], [[[126.49631603540335, 34.538444260883374], [126.53350743868641, 34.538444260883374], [126.53350743868641, 34.569074891514], [126.49631603540335, 34.569074891514], [126.49631603540335, 34.538444260883374]]], [[[128.1296370189004, 36.6752186217475], [128.1678358088886, 36.6752186217475], [128.1678358088886, 36.70584925237812], [128.1296370189004, 36.70584925237812], [128.1296370189004, 36.6752186217475]]], [[[127.72072318040965, 37.87475272957691], [127.7595358985556, 37.87475272957691], [127.7595358985556, 37.90538336020754], [127.72072318040965, 37.90538336020754], [127.72072318040965, 37.87475272957691]]], [[[127.42280243606035, 35.40700850867168], [127.46039055025352, 35.40700850867168], [127.46039055025352, 35.437639139302306], [127.42280243606035, 35.437639139302306], [127.42280243606035, 35.40700850867168]]], [[[126.80362925647849, 37.54560539264198], [126.84226986909711, 37.54560539264198], [126.84226986909711, 37.57623602327261], [126.80362925647849, 37.57623602327261], [126.80362925647849, 37.54560539264198]]], [[[127.20288817356091, 37.20634130753404], [127.24135430350331, 37.20634130753404], [127.24135430350331, 37.236971938164665], [127.20288817356091, 37.236971938164665], [127.20288817356091, 37.20634130753404]]], [[[126.79045790836841, 37.84047480142766], [126.82925257189342, 37.84047480142766], [126.82925257189342, 37.871105432058286], [126.79045790836841, 37.871105432058286], [126.79045790836841, 37.84047480142766]]], [[[127.05624738188067, 36.46445595092821], [127.0943420152687, 36.46445595092821], [127.0943420152687, 36.49508658155884], [127.05624738188067, 36.49508658155884], [127.05624738188067, 36.46445595092821]]], [[[126.51259279601517, 33.42647441153026], [126.5493005345197, 33.42647441153026], [126.5493005345197, 33.45710504216088], [126.51259279601517, 33.45710504216088], [126.51259279601517, 33.42647441153026]]], [[[129.01404055742168, 35.089651563781835], [129.0514817450152, 35.089651563781835], [129.0514817450152, 35.12028219441246], [129.01404055742168, 35.12028219441246], [129.01404055742168, 35.089651563781835]]], [[[128.38215879385677, 36.003152684684686], [128.42002920614323, 36.003152684684686], [128.42002920614323, 36.03378331531531], [128.38215879385677, 36.03378331531531], [128.38215879385677, 36.003152684684686]]], [[[128.81243795169735, 37.694101267045134], [128.85115586275498, 37.694101267045134], [128.85115586275498, 37.72473189767576], [128.81243795169735, 37.72473189767576], [128.81243795169735, 37.694101267045134]]], [[[126.68470524353414, 35.417832616284684], [126.72229840966587, 35.417832616284684], [126.72229840966587, 35.44846324691531], [126.68470524353414, 35.44846324691531], [126.68470524353414, 35.417832616284684]]], [[[127.07315745073393, 37.58266768715921], [127.11181730263027, 37.58266768715921], [127.11181730263027, 37.613298317789834], [127.07315745073393, 37.613298317789834], [127.07315745073393, 37.58266768715921]]], [[[126.99181811222194, 37.62853383753232], [127.03050182249994, 37.62853383753232], [127.03050182249994, 37.65916446816295], [126.99181811222194, 37.65916446816295], [126.99181811222194, 37.62853383753232]]], [[[126.88894694016115, 37.5440257602523], [126.92758673356697, 37.5440257602523], [126.92758673356697, 37.57465639088293], [126.88894694016115, 37.57465639088293], [126.88894694016115, 37.5440257602523]]], [[[126.93942324214235, 37.456272234784684], [126.97801762625765, 37.456272234784684], [126.97801762625765, 37.48690286541531], [126.93942324214235, 37.48690286541531], [126.93942324214235, 37.456272234784684]]], [[[127.0958939743566, 37.48969528904722], [127.13450563043175, 37.48969528904722], [127.13450563043175, 37.520325919677845], [127.0958939743566, 37.520325919677845], [127.0958939743566, 37.48969528904722]]], [[[127.11128083050598, 37.54374611948469], [127.14992047889403, 37.54374611948469], [127.14992047889403, 37.57437675011531], [127.11128083050598, 37.57437675011531], [127.11128083050598, 37.54374611948469]]], [[[129.02602439753016, 35.114141485174265], [129.063476841432, 35.114141485174265], [129.063476841432, 35.14477211580489], [129.02602439753016, 35.14477211580489], [129.02602439753016, 35.114141485174265]]], [[[129.07179027844307, 35.196764968384684], [129.10928079915692, 35.196764968384684], [129.10928079915692, 35.22739559901531], [129.07179027844307, 35.22739559901531], [129.07179027844307, 35.196764968384684]]], [[[129.16312538342262, 35.30687268528469], [129.2006668889774, 35.30687268528469], [129.2006668889774, 35.33750331591531], [129.16312538342262, 35.33750331591531], [129.16312538342262, 35.30687268528469]]], [[[126.90831510433676, 37.38754419031898], [126.9468740617204, 37.38754419031898], [126.9468740617204, 37.4181748209496], [126.90831510433676, 37.4181748209496], [126.90831510433676, 37.38754419031898]]], [[[127.23112186580117, 37.954843788283796], [127.26997688875811, 37.954843788283796], [127.26997688875811, 37.98547441891442], [127.23112186580117, 37.98547441891442], [127.23112186580117, 37.954843788283796]]], [[[127.00522811832022, 38.08295901801435], [127.0441511633426, 38.08295901801435], [127.0441511633426, 38.113589648644975], [127.00522811832022, 38.113589648644975], [127.00522811832022, 38.08295901801435]]], [[[127.59523039015545, 36.96048016122554], [127.63357189286901, 36.96048016122554], [127.63357189286901, 36.991110791856165], [127.59523039015545, 36.991110791856165], [127.59523039015545, 36.96048016122554]]], [[[127.13884867643837, 36.17556864426289], [127.17680229586863, 36.17556864426289], [127.17680229586863, 36.206199274893514], [127.13884867643837, 36.206199274893514], [127.13884867643837, 36.17556864426289]]], [[[126.37502440403412, 34.77121808548469], [126.41232046216587, 34.77121808548469], [126.41232046216587, 34.801848716115316], [126.37502440403412, 34.801848716115316], [126.37502440403412, 34.77121808548469]]], [[[126.6097346331648, 34.78384456206111], [126.64703640261195, 34.78384456206111], [126.64703640261195, 34.81447519269174], [126.6097346331648, 34.81447519269174], [126.6097346331648, 34.78384456206111]]], [[[126.02367286779588, 34.78855219073527], [126.06097676754908, 34.78855219073527], [126.06097676754908, 34.81918282136589], [126.02367286779588, 34.81918282136589], [126.02367286779588, 34.78855219073527]]], [[[129.2860837708696, 36.077939156751285], [129.3239901877643, 36.077939156751285], [129.3239901877643, 36.10856978738191], [129.2860837708696, 36.10856978738191], [129.2860837708696, 36.077939156751285]]], [[[128.79068943195796, 35.818342439426694], [128.82847143888222, 35.818342439426694], [128.82847143888222, 35.84897307005732], [128.79068943195796, 35.84897307005732], [128.79068943195796, 35.818342439426694]]], [[[128.44399199111353, 36.00018198151855], [128.48186097595232, 36.00018198151855], [128.48186097595232, 36.03081261214918], [128.44399199111353, 36.03081261214918], [128.44399199111353, 36.00018198151855]]], [[[128.82647377933102, 35.25654188919783], [128.86399194506754, 35.25654188919783], [128.86399194506754, 35.28717251982845], [128.82647377933102, 35.28717251982845], [128.82647377933102, 35.25654188919783]]], [[[129.10256626170766, 37.26222863882069], [129.1410609331157, 37.26222863882069], [129.1410609331157, 37.29285926945131], [129.10256626170766, 37.29285926945131], [129.10256626170766, 37.26222863882069]]], [[[129.10256626170766, 37.26222863882069], [129.1410609331157, 37.26222863882069], [129.1410609331157, 37.29285926945131], [129.10256626170766, 37.29285926945131], [129.10256626170766, 37.26222863882069]]], [[[128.48212075840829, 37.18828381182666], [128.52057768331284, 37.18828381182666], [128.52057768331284, 37.21891444245728], [128.48212075840829, 37.21891444245728], [128.48212075840829, 37.18828381182666]]], [[[127.97983181006596, 38.16565258218464], [128.01879899099552, 38.16565258218464], [128.01879899099552, 38.19628321281527], [127.97983181006596, 38.19628321281527], [127.97983181006596, 38.16565258218464]]], [[[126.97026769676646, 36.00802860101513], [127.00814045242535, 36.00802860101513], [127.00814045242535, 36.03865923164575], [126.97026769676646, 36.03865923164575], [126.97026769676646, 36.00802860101513]]], [[[127.0710140425592, 35.41827128083855], [127.10860741348588, 35.41827128083855], [127.10860741348588, 35.44890191146918], [127.0710140425592, 35.44890191146918], [127.0710140425592, 35.41827128083855]]], [[[127.05571845683174, 37.6365523016777], [127.0944063436779, 37.6365523016777], [127.0944063436779, 37.66718293230833], [127.05571845683174, 37.66718293230833], [127.05571845683174, 37.6365523016777]]], [[[126.88894694016115, 37.5440257602523], [126.92758673356697, 37.5440257602523], [126.92758673356697, 37.57465639088293], [126.88894694016115, 37.57465639088293], [126.88894694016115, 37.5440257602523]]], [[[128.96804144778, 35.14248879745288], [129.0055069379674, 35.14248879745288], [129.0055069379674, 35.1731194280835], [128.96804144778, 35.1731194280835], [128.96804144778, 35.14248879745288]]], [[[128.53079647455996, 35.85955826995245], [128.568598127545, 35.85955826995245], [128.568598127545, 35.89018890058308], [128.53079647455996, 35.89018890058308], [128.53079647455996, 35.85955826995245]]], [[[126.64611995844527, 37.43763937323163], [126.68470472610196, 37.43763937323163], [126.68470472610196, 37.46827000386226], [126.64611995844527, 37.46827000386226], [126.64611995844527, 37.43763937323163]]], [[[126.38400592198289, 37.69485201563405], [126.4227242252841, 37.69485201563405], [126.4227242252841, 37.72548264626467], [126.38400592198289, 37.72548264626467], [126.38400592198289, 37.69485201563405]]], [[[126.83159953354824, 35.1199566888135], [126.86905465229337, 35.1199566888135], [126.86905465229337, 35.15058731944413], [126.83159953354824, 35.15058731944413], [126.83159953354824, 35.1199566888135]]], [[[127.45609072075004, 36.308741161924395], [127.49410909541263, 36.308741161924395], [127.49410909541263, 36.33937179255502], [127.45609072075004, 36.33937179255502], [127.45609072075004, 36.308741161924395]]], [[[127.3138847427194, 36.36148391895473], [127.35192888158981, 36.36148391895473], [127.35192888158981, 36.39211454958536], [127.3138847427194, 36.39211454958536], [127.3138847427194, 36.36148391895473]]], [[[126.8454963532318, 37.43021937993399], [126.8840772938843, 37.43021937993399], [126.8840772938843, 37.46085001056461], [126.8454963532318, 37.46085001056461], [126.8454963532318, 37.43021937993399]]], [[[127.11156678234221, 37.58424923055087], [127.15022745601416, 37.58424923055087], [127.15022745601416, 37.61487986118149], [127.11156678234221, 37.61487986118149], [127.11156678234221, 37.58424923055087]]], [[[127.22391518138808, 37.647567868019415], [127.26260880860609, 37.647567868019415], [127.26260880860609, 37.67819849865004], [127.22391518138808, 37.67819849865004], [127.22391518138808, 37.647567868019415]]], [[[126.79045790836841, 37.84047480142766], [126.82925257189342, 37.84047480142766], [126.82925257189342, 37.871105432058286], [126.79045790836841, 37.871105432058286], [126.79045790836841, 37.84047480142766]]], [[[127.87644682560855, 36.99990413211893], [127.91480821045741, 36.99990413211893], [127.91480821045741, 37.030534762749554], [127.87644682560855, 37.030534762749554], [127.87644682560855, 36.99990413211893]]], [[[127.18346940982805, 36.78896172022726], [127.2217248628588, 36.78896172022726], [127.2217248628588, 36.81959235085789], [127.18346940982805, 36.81959235085789], [127.18346940982805, 36.78896172022726]]], [[[126.02367286779588, 34.78855219073527], [126.06097676754908, 34.78855219073527], [126.06097676754908, 34.81918282136589], [126.02367286779588, 34.81918282136589], [126.02367286779588, 34.78855219073527]]], [[[129.2860837708696, 36.077939156751285], [129.3239901877643, 36.077939156751285], [129.3239901877643, 36.10856978738191], [129.2860837708696, 36.10856978738191], [129.2860837708696, 36.077939156751285]]], [[[129.2860837708696, 36.077939156751285], [129.3239901877643, 36.077939156751285], [129.3239901877643, 36.10856978738191], [129.2860837708696, 36.10856978738191], [129.2860837708696, 36.077939156751285]]], [[[129.2860837708696, 36.077939156751285], [129.3239901877643, 36.077939156751285], [129.3239901877643, 36.10856978738191], [129.2860837708696, 36.10856978738191], [129.2860837708696, 36.077939156751285]]], [[[128.77061230858197, 35.4829366734418], [128.80823591776164, 35.4829366734418], [128.80823591776164, 35.513567304072424], [128.77061230858197, 35.513567304072424], [128.77061230858197, 35.4829366734418]]], [[[126.51259279601517, 33.42647441153026], [126.5493005345197, 33.42647441153026], [126.5493005345197, 33.45710504216088], [126.51259279601517, 33.45710504216088], [126.51259279601517, 33.42647441153026]]], [[[126.51259279601517, 33.42647441153026], [126.5493005345197, 33.42647441153026], [126.5493005345197, 33.45710504216088], [126.51259279601517, 33.45710504216088], [126.51259279601517, 33.42647441153026]]], [[[127.91183486554556, 37.29293308031116], [127.9503452512424, 37.29293308031116], [127.9503452512424, 37.323563710941784], [127.91183486554556, 37.323563710941784], [127.91183486554556, 37.29293308031116]]], [[[127.11156678234221, 37.58424923055087], [127.15022745601416, 37.58424923055087], [127.15022745601416, 37.61487986118149], [127.11156678234221, 37.61487986118149], [127.11156678234221, 37.58424923055087]]], [[[128.81243795169735, 37.694101267045134], [128.85115586275498, 37.694101267045134], [128.85115586275498, 37.72473189767576], [128.81243795169735, 37.72473189767576], [128.81243795169735, 37.694101267045134]]], [[[128.96804144778, 35.14248879745288], [129.0055069379674, 35.14248879745288], [129.0055069379674, 35.1731194280835], [128.96804144778, 35.1731194280835], [128.96804144778, 35.14248879745288]]], [[[129.1827507379163, 35.28147681003604], [129.220280459435, 35.28147681003604], [129.220280459435, 35.312107440666665], [129.1827507379163, 35.312107440666665], [129.1827507379163, 35.28147681003604]]], [[[126.76947254142017, 37.48889592009897], [126.8080837840733, 37.48889592009897], [126.8080837840733, 37.519526550729594], [126.76947254142017, 37.519526550729594], [126.76947254142017, 37.48889592009897]]], [[[127.13884867643837, 36.17556864426289], [127.17680229586863, 36.17556864426289], [127.17680229586863, 36.206199274893514], [127.13884867643837, 36.206199274893514], [127.13884867643837, 36.17556864426289]]], [[[128.05119578946588, 35.075866333184685], [128.08863064693415, 35.075866333184685], [128.08863064693415, 35.10649696381531], [128.05119578946588, 35.10649696381531], [128.05119578946588, 35.075866333184685]]], [[[126.89113369410543, 37.50716396275665], [126.92975438881334, 37.50716396275665], [126.92975438881334, 37.537794593387275], [126.89113369410543, 37.537794593387275], [126.89113369410543, 37.50716396275665]]], [[[128.56787107823442, 35.86508440718469], [128.6056753683656, 35.86508440718469], [128.6056753683656, 35.895715037815314], [128.56787107823442, 35.895715037815314], [128.56787107823442, 35.86508440718469]]], [[[126.92997806195713, 35.10219584115537], [126.96742501357973, 35.10219584115537], [126.96742501357973, 35.132826471786], [126.92997806195713, 35.132826471786], [126.92997806195713, 35.10219584115537]]], [[[129.30963290566459, 35.5002737885962], [129.34726463829404, 35.5002737885962], [129.34726463829404, 35.53090441922683], [129.30963290566459, 35.53090441922683], [129.30963290566459, 35.5002737885962]]], [[[126.76947254142017, 37.48889592009897], [126.8080837840733, 37.48889592009897], [126.8080837840733, 37.519526550729594], [126.76947254142017, 37.519526550729594], [126.76947254142017, 37.48889592009897]]], [[[126.7391779416229, 37.27912571062966], [126.77768125786244, 37.27912571062966], [126.77768125786244, 37.30975634126028], [126.7391779416229, 37.30975634126028], [126.7391779416229, 37.27912571062966]]], [[[126.7391779416229, 37.27912571062966], [126.77768125786244, 37.27912571062966], [126.77768125786244, 37.30975634126028], [126.7391779416229, 37.30975634126028], [126.7391779416229, 37.27912571062966]]], [[[126.76417225436178, 37.37115082712898], [126.80272277937526, 37.37115082712898], [126.80272277937526, 37.401781457759604], [126.76417225436178, 37.401781457759604], [126.76417225436178, 37.37115082712898]]], [[[127.63650014431927, 37.28380468468469], [127.67500585568074, 37.28380468468469], [127.67500585568074, 37.314435315315315], [127.63650014431927, 37.314435315315315], [127.63650014431927, 37.28380468468469]]], [[[127.00522811832022, 38.08295901801435], [127.0441511633426, 38.08295901801435], [127.0441511633426, 38.113589648644975], [127.00522811832022, 38.113589648644975], [127.00522811832022, 38.08295901801435]]], [[[128.12178141442416, 37.044531669376845], [128.1601653524877, 37.044531669376845], [128.1601653524877, 37.07516230000747], [128.12178141442416, 37.07516230000747], [128.12178141442416, 37.044531669376845]]], [[[126.57403382022812, 36.33108954143942], [126.61206310361158, 36.33108954143942], [126.61206310361158, 36.361720172070044], [126.57403382022812, 36.361720172070044], [126.57403382022812, 36.33108954143942]]], [[[126.63273728317291, 36.88879683018004], [126.67104273402784, 36.88879683018004], [126.67104273402784, 36.91942746081067], [126.63273728317291, 36.91942746081067], [126.63273728317291, 36.88879683018004]]], [[[126.70108090286045, 34.972936673112066], [126.73846863134234, 34.972936673112066], [126.73846863134234, 35.00356730374269], [126.70108090286045, 35.00356730374269], [126.70108090286045, 34.972936673112066]]], [[[127.1428617762298, 34.79935973290202], [127.18017056850836, 34.79935973290202], [127.18017056850836, 34.829990363532644], [127.1428617762298, 34.829990363532644], [127.1428617762298, 34.79935973290202]]], [[[126.50124001750231, 35.04087343298469], [126.5386588256977, 35.04087343298469], [126.5386588256977, 35.071504063615315], [126.50124001750231, 35.071504063615315], [126.50124001750231, 35.04087343298469]]], [[[126.02367286779588, 34.78855219073527], [126.06097676754908, 34.78855219073527], [126.06097676754908, 34.81918282136589], [126.02367286779588, 34.81918282136589], [126.02367286779588, 34.78855219073527]]], [[[126.02367286779588, 34.78855219073527], [126.06097676754908, 34.78855219073527], [126.06097676754908, 34.81918282136589], [126.02367286779588, 34.81918282136589], [126.02367286779588, 34.78855219073527]]], [[[127.99229517746464, 36.10150384168469], [128.03021296673535, 36.10150384168469], [128.03021296673535, 36.132134472315315], [127.99229517746464, 36.132134472315315], [127.99229517746464, 36.10150384168469]]], [[[128.58107489926195, 35.1853452495597], [128.61856014797493, 35.1853452495597], [128.61856014797493, 35.21597588019033], [128.58107489926195, 35.21597588019033], [128.58107489926195, 35.1853452495597]]], [[[128.47405591394678, 35.493124932445255], [128.51168429607773, 35.493124932445255], [128.51168429607773, 35.52375556307588], [128.47405591394678, 35.52375556307588], [128.47405591394678, 35.493124932445255]]], [[[126.54225079926073, 33.228547684684685], [126.57887520073928, 33.228547684684685], [126.57887520073928, 33.25917831531531], [126.54225079926073, 33.25917831531531], [126.54225079926073, 33.228547684684685]]], [[[127.91183486554556, 37.29293308031116], [127.9503452512424, 37.29293308031116], [127.9503452512424, 37.323563710941784], [127.91183486554556, 37.323563710941784], [127.91183486554556, 37.29293308031116]]], [[[127.21707967958878, 35.582329754703004], [127.25474995469472, 35.582329754703004], [127.25474995469472, 35.61296038533363], [127.21707967958878, 35.61296038533363], [127.21707967958878, 35.582329754703004]]], [[[126.93262819060584, 37.48370127893466], [126.97123674706486, 37.48370127893466], [126.97123674706486, 37.514331909565286], [126.93262819060584, 37.514331909565286], [126.93262819060584, 37.48370127893466]]], [[[129.02602439753016, 35.114141485174265], [129.063476841432, 35.114141485174265], [129.063476841432, 35.14477211580489], [129.02602439753016, 35.14477211580489], [129.02602439753016, 35.114141485174265]]], [[[129.0384742174903, 35.15009569708469], [129.0759432117097, 35.15009569708469], [129.0759432117097, 35.18072632771531], [129.0384742174903, 35.18072632771531], [129.0384742174903, 35.15009569708469]]], [[[129.13513102339238, 35.17839394306261], [129.17261306443623, 35.17839394306261], [129.17261306443623, 35.209024573693235], [129.13513102339238, 35.209024573693235], [129.13513102339238, 35.17839394306261]]], [[[127.22391518138808, 37.647567868019415], [127.26260880860609, 37.647567868019415], [127.26260880860609, 37.67819849865004], [127.22391518138808, 37.67819849865004], [127.22391518138808, 37.647567868019415]]], [[[127.23112186580117, 37.954843788283796], [127.26997688875811, 37.954843788283796], [127.26997688875811, 37.98547441891442], [127.23112186580117, 37.98547441891442], [127.23112186580117, 37.954843788283796]]], [[[127.5965662972459, 37.2870289297453], [127.63507365939039, 37.2870289297453], [127.63507365939039, 37.31765956037592], [127.5965662972459, 37.31765956037592], [127.5965662972459, 37.2870289297453]]], [[[127.47991106014332, 36.61186411301765], [127.5180784268964, 36.61186411301765], [127.5180784268964, 36.64249474364828], [127.47991106014332, 36.64249474364828], [127.47991106014332, 36.61186411301765]]], [[[126.75359591879233, 34.60468035958379], [126.79081697940786, 34.60468035958379], [126.79081697940786, 34.635310990214414], [126.75359591879233, 34.635310990214414], [126.75359591879233, 34.60468035958379]]], [[[127.91183486554556, 37.29293308031116], [127.9503452512424, 37.29293308031116], [127.9503452512424, 37.323563710941784], [127.91183486554556, 37.323563710941784], [127.91183486554556, 37.29293308031116]]], [[[129.10256626170766, 37.26222863882069], [129.1410609331157, 37.26222863882069], [129.1410609331157, 37.29285926945131], [129.10256626170766, 37.29285926945131], [129.10256626170766, 37.26222863882069]]], [[[128.24328087522977, 38.052745685373566], [128.28218783966653, 38.052745685373566], [128.28218783966653, 38.08337631600419], [128.24328087522977, 38.08337631600419], [128.24328087522977, 38.052745685373566]]], [[[126.843706113478, 35.53641239828469], [126.881354801522, 35.53641239828469], [126.881354801522, 35.567043028915315], [126.843706113478, 35.567043028915315], [126.843706113478, 35.53641239828469]]], [[[129.03837906616883, 36.34177702943416], [129.07641357060191, 36.34177702943416], [129.07641357060191, 36.37240766006479], [129.03837906616883, 36.37240766006479], [129.03837906616883, 36.34177702943416]]], [[[126.64231178743785, 36.58640572588469], [126.68046655476215, 36.58640572588469], [126.68046655476215, 36.617036356515314], [126.64231178743785, 36.617036356515314], [126.64231178743785, 36.58640572588469]]], [[[129.04508634046886, 35.063567646520085], [129.08251555406207, 35.063567646520085], [129.08251555406207, 35.09419827715071], [129.04508634046886, 35.09419827715071], [129.04508634046886, 35.063567646520085]]], [[[128.66696382105266, 35.91904584510482], [128.70479390015544, 35.91904584510482], [128.70479390015544, 35.949676475735444], [128.66696382105266, 35.949676475735444], [128.66696382105266, 35.91904584510482]]], [[[129.3026433655209, 35.54190768468469], [129.3402946344791, 35.54190768468469], [129.3402946344791, 35.57253831531531], [129.3026433655209, 35.57253831531531], [129.3026433655209, 35.54190768468469]]], [[[127.2397028685078, 36.54556206430872], [127.27783745527722, 36.54556206430872], [127.27783745527722, 36.576192694939344], [127.2397028685078, 36.576192694939344], [127.2397028685078, 36.54556206430872]]], [[[126.96161325937592, 36.79185521044502], [126.99987015800781, 36.79185521044502], [126.99987015800781, 36.82248584107565], [126.96161325937592, 36.82248584107565], [126.96161325937592, 36.79185521044502]]], [[[126.83798987736988, 36.23108787319465], [126.8759704412967, 36.23108787319465], [126.8759704412967, 36.26171850382528], [126.83798987736988, 36.26171850382528], [126.83798987736988, 36.23108787319465]]], [[[126.26499574307105, 36.68225974817882], [126.30319803147127, 36.68225974817882], [126.30319803147127, 36.71289037880945], [126.26499574307105, 36.71289037880945], [126.26499574307105, 36.68225974817882]]], [[[126.49631603540335, 34.538444260883374], [126.53350743868641, 34.538444260883374], [126.53350743868641, 34.569074891514], [126.49631603540335, 34.569074891514], [126.49631603540335, 34.538444260883374]]], [[[126.6097346331648, 34.78384456206111], [126.64703640261195, 34.78384456206111], [126.64703640261195, 34.81447519269174], [126.6097346331648, 34.81447519269174], [126.6097346331648, 34.78384456206111]]], [[[128.40337451354478, 36.63894667665154], [128.44155530095142, 36.63894667665154], [128.44155530095142, 36.66957730728217], [128.40337451354478, 36.66957730728217], [128.40337451354478, 36.63894667665154]]], [[[128.40337451354478, 36.63894667665154], [128.44155530095142, 36.63894667665154], [128.44155530095142, 36.66957730728217], [128.40337451354478, 36.66957730728217], [128.40337451354478, 36.63894667665154]]], [[[128.82647377933102, 35.25654188919783], [128.86399194506754, 35.25654188919783], [128.86399194506754, 35.28717251982845], [128.82647377933102, 35.28717251982845], [128.82647377933102, 35.25654188919783]]], [[[129.02261003999146, 35.38663565087773], [129.06018865287425, 35.38663565087773], [129.06018865287425, 35.417266281508354], [129.02261003999146, 35.417266281508354], [129.02261003999146, 35.38663565087773]]], [[[129.10256626170766, 37.26222863882069], [129.1410609331157, 37.26222863882069], [129.1410609331157, 37.29285926945131], [129.10256626170766, 37.29285926945131], [129.10256626170766, 37.26222863882069]]], [[[126.70812442209755, 35.94134092728133], [126.7459651764283, 35.94134092728133], [126.7459651764283, 35.97197155791196], [126.70812442209755, 35.97197155791196], [126.70812442209755, 35.94134092728133]]], [[[126.88829915068375, 35.788423907306075], [126.92606692157538, 35.788423907306075], [126.92606692157538, 35.8190545379367], [126.88829915068375, 35.8190545379367], [126.88829915068375, 35.788423907306075]]], [[[127.0493242166681, 37.72101825143541], [127.08805620016544, 37.72101825143541], [127.08805620016544, 37.751648882066036], [127.0493242166681, 37.751648882066036], [127.0493242166681, 37.72101825143541]]], [[[126.98184290644114, 37.79335533370328], [127.02061280157498, 37.79335533370328], [127.02061280157498, 37.82398596433391], [126.98184290644114, 37.82398596433391], [126.98184290644114, 37.79335533370328]]], [[[127.47991106014332, 36.61186411301765], [127.5180784268964, 36.61186411301765], [127.5180784268964, 36.64249474364828], [127.47991106014332, 36.64249474364828], [127.47991106014332, 36.61186411301765]]], [[[127.18346940982805, 36.78896172022726], [127.2217248628588, 36.78896172022726], [127.2217248628588, 36.81959235085789], [127.18346940982805, 36.81959235085789], [127.18346940982805, 36.78896172022726]]], [[[127.63736733706985, 34.68867387232618], [127.67462614569463, 34.68867387232618], [127.67462614569463, 34.7193045029568], [127.63736733706985, 34.7193045029568], [127.63736733706985, 34.68867387232618]]], [[[127.48442947269405, 35.22170179878355], [127.52193151602313, 35.22170179878355], [127.52193151602313, 35.252332429414174], [127.48442947269405, 35.252332429414174], [127.48442947269405, 35.22170179878355]]], [[[126.40384716424389, 34.94167754387107], [126.4412206272748, 34.94167754387107], [126.4412206272748, 34.9723081745017], [126.40384716424389, 34.9723081745017], [126.40384716424389, 34.94167754387107]]], [[[128.01869190929904, 35.03489961065233], [128.05610798040794, 35.03489961065233], [128.05610798040794, 35.06553024128296], [128.01869190929904, 35.06553024128296], [128.01869190929904, 35.03489961065233]]], [[[128.60461968409194, 34.85419951968285], [128.64195334236504, 34.85419951968285], [128.64195334236504, 34.884830150313476], [128.60461968409194, 34.884830150313476], [128.60461968409194, 34.85419951968285]]], [[[126.97026769676646, 36.00802860101513], [127.00814045242535, 36.00802860101513], [127.00814045242535, 36.03865923164575], [126.97026769676646, 36.03865923164575], [126.97026769676646, 36.00802860101513]]], [[[128.58107489926195, 35.1853452495597], [128.61856014797493, 35.1853452495597], [128.61856014797493, 35.21597588019033], [128.58107489926195, 35.21597588019033], [128.58107489926195, 35.1853452495597]]], [[[128.82647377933102, 35.25654188919783], [128.86399194506754, 35.25654188919783], [128.86399194506754, 35.28717251982845], [128.82647377933102, 35.28717251982845], [128.82647377933102, 35.25654188919783]]], [[[128.31246006591425, 36.11408868468469], [128.35038393408576, 36.11408868468469], [128.35038393408576, 36.144719315315314], [128.31246006591425, 36.144719315315314], [128.31246006591425, 36.11408868468469]]], [[[127.97983181006596, 38.16565258218464], [128.01879899099552, 38.16565258218464], [128.01879899099552, 38.19628321281527], [127.97983181006596, 38.19628321281527], [127.97983181006596, 38.16565258218464]]], [[[127.47991106014332, 36.61186411301765], [127.5180784268964, 36.61186411301765], [127.5180784268964, 36.64249474364828], [127.47991106014332, 36.64249474364828], [127.47991106014332, 36.61186411301765]]], [[[128.71959914850902, 37.363421885723845], [128.75814570030587, 37.363421885723845], [128.75814570030587, 37.39405251635447], [128.71959914850902, 37.39405251635447], [128.71959914850902, 37.363421885723845]]], [[[127.42280243606035, 35.40700850867168], [127.46039055025352, 35.40700850867168], [127.46039055025352, 35.437639139302306], [127.42280243606035, 35.437639139302306], [127.42280243606035, 35.40700850867168]]], [[[126.57403382022812, 36.33108954143942], [126.61206310361158, 36.33108954143942], [126.61206310361158, 36.361720172070044], [126.57403382022812, 36.361720172070044], [126.57403382022812, 36.33108954143942]]], [[[127.0710140425592, 35.41827128083855], [127.10860741348588, 35.41827128083855], [127.10860741348588, 35.44890191146918], [127.0710140425592, 35.44890191146918], [127.0710140425592, 35.41827128083855]]], [[[127.3138847427194, 36.36148391895473], [127.35192888158981, 36.36148391895473], [127.35192888158981, 36.39211454958536], [127.3138847427194, 36.39211454958536], [127.3138847427194, 36.36148391895473]]], [[[127.1428617762298, 34.79935973290202], [127.18017056850836, 34.79935973290202], [127.18017056850836, 34.829990363532644], [127.1428617762298, 34.829990363532644], [127.1428617762298, 34.79935973290202]]], [[[126.40384716424389, 34.94167754387107], [126.4412206272748, 34.94167754387107], [126.4412206272748, 34.9723081745017], [126.40384716424389, 34.9723081745017], [126.40384716424389, 34.94167754387107]]], [[[126.97026769676646, 36.00802860101513], [127.00814045242535, 36.00802860101513], [127.00814045242535, 36.03865923164575], [126.97026769676646, 36.03865923164575], [126.97026769676646, 36.00802860101513]]], [[[126.79045790836841, 37.84047480142766], [126.82925257189342, 37.84047480142766], [126.82925257189342, 37.871105432058286], [126.79045790836841, 37.871105432058286], [126.79045790836841, 37.84047480142766]]]]}}